{"type":"FeatureCollection","name":"israel_regions","features":[
{"type":"Feature","properties":{"id":"1","name_he":"החרמון","name_en":"Mount Hermon","label":[35.73655,33.28486]},"geometry":{"type":"MultiPolygon","coordinates":[[[[35.718524,33.326917],[35.718495,33.326895],[35.717862,33.326758],[35.717111,33.326483],[35.716381,33.326364],[35.714665,33.325087],[35.714088,33.325186],[35.713751,33.322915],[35.713413,33.32251],[35.71291,33.322272],[35.712729,33.321847],[35.713111,33.321239],[35.713688,33.32047],[35.713762,33.319583],[35.713406,33.319054],[35.712565,33.318716],[35.711638,33.318521],[35.711568,33.318183],[35.711963,33.317942],[35.712632,33.317678],[35.712109,33.316434],[35.711499,33.316123],[35.711398,33.315535],[35.71169,33.314883],[35.711965,33.314664],[35.71236,33.313801],[35.712363,33.313763],[35.712497,33.31215],[35.713514,33.312139],[35.714322,33.312205],[35.715045,33.311912],[35.714407,33.309908],[35.71342,33.309191],[35.712047,33.307362],[35.711843,33.306053],[35.711097,33.305219],[35.709665,33.305102],[35.708914,33.304313],[35.708734,33.303618],[35.708126,33.302995],[35.706243,33.302682],[35.705546,33.302074],[35.704078,33.301897],[35.702734,33.301265],[35.702085,33.300323],[35.70031,33.300486],[35.697876,33.299591],[35.697474,33.298714],[35.697014,33.297424],[35.695926,33.296744],[35.695181,33.296637],[35.692349,33.297104],[35.691608,33.297691],[35.690696,33.297991],[35.689387,33.297588],[35.68531,33.294055],[35.682735,33.291866],[35.681834,33.291364],[35.681276,33.29201],[35.679517,33.292153],[35.678744,33.293014],[35.678744,33.293804],[35.678315,33.294306],[35.677457,33.294306],[35.676126,33.293122],[35.674539,33.292369],[35.673509,33.290539],[35.672178,33.289068],[35.670633,33.287203],[35.669475,33.286701],[35.668831,33.285983],[35.668917,33.28523],[35.669346,33.284656],[35.669002,33.283651],[35.668359,33.28279],[35.66793,33.281822],[35.667329,33.281248],[35.66484,33.280243],[35.662565,33.278629],[35.661836,33.277732],[35.661149,33.276045],[35.659904,33.274826],[35.658531,33.274072],[35.658531,33.272924],[35.656364,33.265747],[35.657448,33.26424],[35.658504,33.263128],[35.659819,33.262374],[35.663467,33.263056],[35.665677,33.260132],[35.66704,33.259602],[35.668751,33.257543],[35.671495,33.256837],[35.674238,33.253654],[35.681748,33.253852],[35.689087,33.257422],[35.696812,33.251608],[35.700932,33.253044],[35.70797,33.254767],[35.709643,33.254767],[35.711424,33.255485],[35.715233,33.255843],[35.71718,33.256238],[35.719828,33.255574],[35.721188,33.2557],[35.722647,33.255341],[35.725994,33.256633],[35.727067,33.255987],[35.728483,33.254121],[35.731144,33.251071],[35.74007,33.25213],[35.740821,33.249985],[35.742956,33.246544],[35.737758,33.244392],[35.736422,33.241308],[35.740478,33.239532],[35.738472,33.2371],[35.736825,33.231577],[35.738747,33.230538],[35.74473,33.231777],[35.748322,33.232038],[35.750118,33.234142],[35.752347,33.234764],[35.760069,33.239405],[35.765176,33.242241],[35.766978,33.245041],[35.768223,33.245722],[35.769854,33.247697],[35.771184,33.250101],[35.773579,33.250319],[35.77812,33.257929],[35.781536,33.260087],[35.782846,33.260659],[35.782142,33.261072],[35.776229,33.264541],[35.775625,33.264896],[35.768597,33.272699],[35.802083,33.31249],[35.78016,33.325051],[35.771216,33.330176],[35.767245,33.332451],[35.766975,33.332606],[35.766699,33.332375],[35.766377,33.331532],[35.765055,33.331378],[35.76399,33.330937],[35.762976,33.330701],[35.761725,33.330176],[35.760903,33.329937],[35.760031,33.329891],[35.759575,33.330085],[35.75861,33.329928],[35.758287,33.329392],[35.757792,33.329071],[35.756975,33.328932],[35.75637,33.328725],[35.755761,33.328813],[35.755144,33.329276],[35.754168,33.329197],[35.75273,33.329184],[35.751014,33.329058],[35.750036,33.328754],[35.749488,33.328307],[35.749077,33.327808],[35.747827,33.326306],[35.746958,33.326315],[35.746078,33.326405],[35.745007,33.325895],[35.74445,33.325385],[35.743337,33.323935],[35.742742,33.323545],[35.741808,33.322406],[35.740489,33.320945],[35.738568,33.318121],[35.737437,33.318547],[35.736828,33.319405],[35.736391,33.320622],[35.735331,33.321642],[35.734759,33.321865],[35.734529,33.322734],[35.732912,33.323897],[35.731888,33.324048],[35.730561,33.324913],[35.72964,33.325632],[35.729266,33.326135],[35.729207,33.327175],[35.729349,33.327624],[35.729346,33.327805],[35.718524,33.326917]]]]}},
{"type":"Feature","properties":{"id":"2","name_he":"צפון מישור החוף","name_en":"Northern Coastal Plain","label":[35.0936,32.80912]},"geometry":{"type":"MultiPolygon","coordinates":[[[[34.904565,32.52879],[34.915967,32.530641],[34.93485,32.537298],[34.93382,32.544534],[34.933749,32.549344],[34.933691,32.553216],[34.936051,32.561463],[34.937545,32.564531],[34.940327,32.570242],[34.941072,32.571771],[34.94472,32.580522],[34.946308,32.588695],[34.960256,32.599686],[34.956136,32.606664],[34.956951,32.611291],[34.959354,32.619244],[34.960256,32.626292],[34.960256,32.630376],[34.964247,32.633809],[34.964762,32.642483],[34.967337,32.646783],[34.962487,32.649999],[34.962745,32.652095],[34.964762,32.654226],[34.966564,32.661561],[34.966607,32.669618],[34.967345,32.674236],[34.968367,32.680635],[34.970942,32.690026],[34.975018,32.696094],[34.978151,32.698369],[34.977207,32.703172],[34.972744,32.708553],[34.97313,32.7161],[34.973044,32.723573],[34.975491,32.728339],[34.972615,32.735812],[34.970856,32.742815],[34.964976,32.757469],[34.964376,32.772084],[34.970727,32.775837],[34.971628,32.783342],[34.971328,32.788826],[34.969568,32.792939],[34.966221,32.797196],[34.965792,32.800586],[34.964376,32.804987],[34.960342,32.806214],[34.958625,32.809785],[34.957809,32.813824],[34.956651,32.817359],[34.956597,32.81825],[34.954294,32.817592],[34.954333,32.81368],[34.955964,32.808089],[34.956136,32.803472],[34.956479,32.803039],[34.95605,32.800081],[34.956307,32.799576],[34.955621,32.797051],[34.955921,32.796546],[34.955664,32.793119],[34.955406,32.792614],[34.955664,32.791928],[34.955449,32.791027],[34.955449,32.78998],[34.954934,32.789367],[34.953647,32.777316],[34.953475,32.774285],[34.952574,32.769775],[34.952016,32.765986],[34.950771,32.753535],[34.94914,32.743068],[34.947681,32.732888],[34.947853,32.73213],[34.945407,32.72119],[34.943862,32.715413],[34.941201,32.709094],[34.938537,32.706151],[34.938236,32.703855],[34.93904,32.701983],[34.937838,32.700352],[34.937825,32.700334],[34.937761,32.70025],[34.936485,32.698559],[34.936474,32.695772],[34.936473,32.695538],[34.936472,32.695289],[34.936467,32.694064],[34.936464,32.69316],[34.936463,32.692997],[34.936418,32.681784],[34.9363,32.657536],[34.9291,32.632436],[34.917611,32.578685],[34.917603,32.578648],[34.917599,32.57863],[34.916699,32.574431],[34.916515,32.573571],[34.913671,32.560292],[34.912944,32.556902],[34.912896,32.556677],[34.912405,32.554384],[34.912403,32.554375],[34.912059,32.553253],[34.907229,32.537487],[34.907174,32.537306],[34.907153,32.537238],[34.907095,32.537049],[34.904565,32.52879]]],[[[34.970149,32.830233],[34.973046,32.828902],[34.974933,32.828034],[34.979181,32.825473],[34.98167,32.823598],[34.985318,32.823454],[34.992828,32.819847],[34.99948,32.81707],[35.001969,32.814906],[35.00536,32.810867],[35.019608,32.796149],[35.030594,32.782728],[35.029736,32.780022],[35.030808,32.779012],[35.035567,32.777234],[35.035829,32.777136],[35.041881,32.775332],[35.050936,32.768584],[35.052266,32.766491],[35.051665,32.760897],[35.056772,32.756242],[35.062265,32.750359],[35.069733,32.743212],[35.073252,32.740866],[35.076384,32.738267],[35.080118,32.733899],[35.086942,32.723321],[35.089474,32.721696],[35.110417,32.731805],[35.108271,32.736769],[35.107842,32.742021],[35.116425,32.757541],[35.11857,32.770533],[35.13608,32.78244],[35.142217,32.795211],[35.147667,32.811299],[35.150328,32.818874],[35.152774,32.827529],[35.155006,32.831351],[35.161185,32.838203],[35.165391,32.846856],[35.169082,32.852192],[35.169296,32.859222],[35.170483,32.860867],[35.176034,32.868558],[35.178051,32.877172],[35.198135,32.906794],[35.193415,32.914972],[35.183201,32.916197],[35.174275,32.91735],[35.170927,32.92614],[35.16346,32.940115],[35.149126,32.953656],[35.148826,32.966655],[35.15183,32.9713],[35.150671,32.97634],[35.150886,32.980552],[35.150414,32.983612],[35.146122,32.987356],[35.142088,32.994771],[35.145092,33.00672],[35.141573,33.019423],[35.144062,33.032521],[35.14801,33.042558],[35.153503,33.052954],[35.150628,33.056767],[35.14904,33.065866],[35.140715,33.06601],[35.135222,33.083739],[35.130715,33.084063],[35.124021,33.086184],[35.122905,33.087443],[35.120716,33.087479],[35.119701,33.088105],[35.11681,33.088287],[35.115808,33.08835],[35.115545,33.088367],[35.115389,33.088377],[35.115354,33.088379],[35.115347,33.088379],[35.115328,33.088381],[35.115319,33.088381],[35.115307,33.088382],[35.115241,33.088386],[35.114899,33.083565],[35.114413,33.077828],[35.114407,33.077755],[35.113331,33.073641],[35.112659,33.071068],[35.112146,33.069107],[35.1121,33.068936],[35.1102,33.061736],[35.109333,33.058343],[35.109219,33.057907],[35.109052,33.057268],[35.105954,33.045415],[35.105627,33.044164],[35.104849,33.041188],[35.104664,33.040481],[35.104289,33.039043],[35.103821,33.037253],[35.103439,33.035793],[35.103322,33.035345],[35.1019,33.030036],[35.098249,33.018034],[35.092444,32.99912],[35.085181,32.975453],[35.085111,32.975224],[35.085109,32.975218],[35.0827,32.967436],[35.081967,32.964977],[35.081706,32.964127],[35.080967,32.961716],[35.077501,32.938829],[35.076964,32.93528],[35.076898,32.934842],[35.074741,32.920902],[35.077329,32.920124],[35.079303,32.917494],[35.079337,32.917419],[35.082633,32.917853],[35.085057,32.918154],[35.086269,32.918304],[35.089756,32.909623],[35.09008,32.908816],[35.090082,32.908811],[35.0875,32.891036],[35.084632,32.880763],[35.084181,32.879174],[35.082337,32.87722],[35.071577,32.862224],[35.061413,32.844265],[35.054459,32.837657],[35.050378,32.832289],[35.042954,32.824211],[35.037847,32.819919],[35.037074,32.820208],[35.03334,32.8179],[35.031924,32.817178],[35.026302,32.815808],[35.027633,32.815014],[35.030594,32.815772],[35.031881,32.81267],[35.03583,32.813752],[35.03686,32.812021],[35.030165,32.809424],[35.027976,32.808955],[35.027847,32.812309],[35.02553,32.81386],[35.023556,32.813536],[35.017848,32.812273],[35.016563,32.818903],[35.014127,32.818576],[35.013186,32.819655],[35.013943,32.814474],[35.011411,32.814077],[35.009394,32.822841],[35.008278,32.822769],[35.008063,32.821831],[35.006948,32.821651],[35.007505,32.819956],[35.006561,32.819523],[35.006905,32.81808],[35.00433,32.817972],[34.999352,32.82331],[34.991627,32.826158],[34.99227,32.827781],[34.99064,32.82843],[34.991198,32.82944],[34.988322,32.833371],[34.986219,32.835282],[34.984645,32.835891],[34.984287,32.835501],[34.984262,32.835473],[34.98205,32.833082],[34.981386,32.832364],[34.981334,32.832309],[34.981329,32.832303],[34.981321,32.832295],[34.981263,32.832232],[34.9781,32.831936],[34.977393,32.831843],[34.975794,32.831633],[34.974209,32.831464],[34.974016,32.831444],[34.972119,32.831241],[34.972076,32.831237],[34.971798,32.831207],[34.970149,32.830233]]]]}},
{"type":"Feature","properties":{"id":"3","name_he":"הגליל העליון ואצבע הגליל","name_en":"Upper Galilee and the Galilee Panhandle","label":[35.23811,33.01227]},"geometry":{"type":"MultiPolygon","coordinates":[[[[35.119701,33.088105],[35.120716,33.087479],[35.122905,33.087443],[35.124021,33.086184],[35.130715,33.084063],[35.135222,33.083739],[35.140715,33.06601],[35.14904,33.065866],[35.150628,33.056767],[35.153503,33.052954],[35.14801,33.042558],[35.144062,33.032521],[35.141573,33.019423],[35.145092,33.00672],[35.142088,32.994771],[35.146122,32.987356],[35.150414,32.983612],[35.150886,32.980552],[35.150671,32.97634],[35.15183,32.9713],[35.148826,32.966655],[35.149126,32.953656],[35.16346,32.940115],[35.170927,32.92614],[35.174275,32.91735],[35.183201,32.916197],[35.193415,32.914972],[35.202169,32.913819],[35.202897,32.913705],[35.210409,32.912522],[35.210785,32.912468],[35.214843,32.911887],[35.217447,32.911514],[35.22397,32.91418],[35.229464,32.918647],[35.236502,32.920448],[35.240965,32.920952],[35.250578,32.922177],[35.259333,32.931111],[35.269547,32.938242],[35.275726,32.938098],[35.28182,32.936874],[35.293236,32.936081],[35.314007,32.939179],[35.324306,32.941988],[35.330744,32.944869],[35.343103,32.945373],[35.35718,32.943357],[35.368338,32.946094],[35.376492,32.941484],[35.383701,32.935721],[35.392113,32.937306],[35.39752,32.933992],[35.40061,32.933848],[35.403614,32.935145],[35.408506,32.930823],[35.416918,32.927869],[35.434599,32.928805],[35.471077,32.935145],[35.485668,32.921096],[35.501032,32.915837],[35.52043,32.909856],[35.551672,32.921961],[35.549269,32.931759],[35.555792,32.933632],[35.565786,32.929865],[35.576048,32.925996],[35.615444,32.917638],[35.610209,32.924735],[35.612097,32.934136],[35.612226,32.939755],[35.615487,32.943789],[35.6145,32.950163],[35.615916,32.953944],[35.619435,32.961002],[35.618405,32.965179],[35.620079,32.970364],[35.620508,32.97796],[35.623641,32.985124],[35.622912,32.989372],[35.618834,32.99801],[35.620122,32.999018],[35.619307,33.000566],[35.616603,33.002437],[35.614586,33.004561],[35.599222,33.012478],[35.596099,33.015868],[35.592227,33.020071],[35.589438,33.022338],[35.57725,33.02716],[35.565786,33.029316],[35.564246,33.029606],[35.559354,33.035758],[35.556994,33.040903],[35.558287,33.050467],[35.55841,33.051371],[35.565786,33.052593],[35.568838,33.053098],[35.570812,33.055328],[35.571542,33.057702],[35.568194,33.060292],[35.574117,33.069247],[35.575619,33.073706],[35.571713,33.07777],[35.572529,33.083883],[35.573387,33.086688],[35.574117,33.08996],[35.573816,33.09546],[35.571842,33.098229],[35.57034,33.101357],[35.570211,33.10319],[35.568624,33.105958],[35.568666,33.109086],[35.568386,33.112537],[35.568366,33.112788],[35.568109,33.118755],[35.568666,33.123823],[35.567851,33.12907],[35.567336,33.137372],[35.568538,33.141073],[35.56798,33.145816],[35.569053,33.148403],[35.569611,33.155876],[35.56828,33.162595],[35.568152,33.167624],[35.567594,33.16942],[35.565786,33.172292],[35.564632,33.174126],[35.564289,33.176317],[35.563731,33.177718],[35.563989,33.18113],[35.565786,33.182275],[35.569911,33.184902],[35.578365,33.193485],[35.578494,33.200883],[35.599995,33.218154],[35.608921,33.222785],[35.623984,33.237647],[35.624371,33.242062],[35.624223,33.242166],[35.623241,33.242853],[35.622783,33.243174],[35.621152,33.243569],[35.618062,33.244861],[35.615916,33.246763],[35.611882,33.248881],[35.610388,33.249428],[35.604576,33.244354],[35.604576,33.244251],[35.603892,33.240323],[35.603852,33.240091],[35.598064,33.244251],[35.597858,33.24438],[35.597754,33.244354],[35.585042,33.252209],[35.566955,33.276187],[35.563774,33.279454],[35.564933,33.275579],[35.564761,33.274969],[35.564032,33.272852],[35.562444,33.270879],[35.56047,33.269479],[35.559654,33.268116],[35.559611,33.266178],[35.558624,33.265676],[35.557165,33.264599],[35.556908,33.264133],[35.556436,33.261119],[35.555749,33.258391],[35.555105,33.258212],[35.553818,33.258032],[35.550213,33.256059],[35.549226,33.255879],[35.547724,33.255018],[35.54605,33.254408],[35.546308,33.244825],[35.546436,33.242744],[35.546393,33.237539],[35.537467,33.232585],[35.53721,33.221564],[35.536866,33.20889],[35.537982,33.206628],[35.53957,33.204007],[35.542531,33.198441],[35.536952,33.176569],[35.535192,33.16881],[35.530257,33.154727],[35.526481,33.138917],[35.52721,33.137803],[35.529571,33.135647],[35.530128,33.135],[35.530644,33.134748],[35.531545,33.134281],[35.532231,33.133922],[35.519829,33.116203],[35.505495,33.115843],[35.504594,33.115628],[35.503864,33.115232],[35.50292,33.114513],[35.502234,33.11401],[35.502276,33.113076],[35.503092,33.111566],[35.503564,33.089492],[35.499015,33.090607],[35.489874,33.092476],[35.481854,33.092649],[35.480139,33.087387],[35.449443,33.085217],[35.448783,33.084978],[35.448737,33.084962],[35.445711,33.083869],[35.44078,33.082087],[35.431037,33.065758],[35.403271,33.062198],[35.395546,33.060903],[35.381985,33.06245],[35.378122,33.054968],[35.359282,33.056803],[35.358038,33.057558],[35.356064,33.057738],[35.354347,33.057306],[35.35391,33.057495],[35.346231,33.055815],[35.34516,33.05558],[35.332193,33.057125],[35.331931,33.057156],[35.322629,33.067363],[35.315704,33.079222],[35.305783,33.089377],[35.29462,33.096973],[35.288825,33.099201],[35.283665,33.101185],[35.281449,33.101185],[35.279674,33.100745],[35.278688,33.100781],[35.277829,33.100781],[35.277357,33.100602],[35.273323,33.100422],[35.270619,33.100206],[35.268345,33.099415],[35.266671,33.099092],[35.265555,33.098588],[35.263495,33.098409],[35.262337,33.097941],[35.261993,33.097474],[35.261393,33.097042],[35.259762,33.096791],[35.259032,33.096647],[35.255513,33.095568],[35.253925,33.09546],[35.25281,33.095784],[35.252245,33.095855],[35.246245,33.094192],[35.234469,33.090927],[35.227338,33.091366],[35.213178,33.094441],[35.207184,33.094803],[35.207003,33.094745],[35.206633,33.094346],[35.206633,33.093591],[35.20719,33.092944],[35.207877,33.092261],[35.208478,33.091757],[35.208521,33.09093],[35.20689,33.088413],[35.205774,33.088018],[35.204744,33.08827],[35.204058,33.088521],[35.203199,33.08827],[35.202126,33.087802],[35.200968,33.087622],[35.200152,33.087658],[35.198822,33.087083],[35.197062,33.086508],[35.196633,33.08622],[35.195046,33.086148],[35.194359,33.085861],[35.193586,33.085213],[35.1932,33.085105],[35.192728,33.086184],[35.191968,33.087062],[35.191132,33.086516],[35.189614,33.085527],[35.185273,33.083977],[35.166076,33.085185],[35.164622,33.085277],[35.161149,33.085495],[35.15947,33.085601],[35.158089,33.085688],[35.155911,33.085825],[35.155135,33.085874],[35.155004,33.085882],[35.152862,33.086017],[35.152286,33.086054],[35.144139,33.086567],[35.128614,33.087544],[35.121309,33.088004],[35.119701,33.088105]]]]}},
{"type":"Feature","properties":{"id":"4","name_he":"עמק החולה","name_en":"Hula Valley","label":[35.61539,33.16312]},"geometry":{"type":"MultiPolygon","coordinates":[[[[35.62029,33.269638],[35.620508,33.268941],[35.622568,33.264312],[35.622182,33.263128],[35.621409,33.262087],[35.62304,33.260508],[35.622912,33.25997],[35.621152,33.25936],[35.620894,33.258463],[35.621452,33.257063],[35.621753,33.256704],[35.621324,33.255879],[35.62098,33.256023],[35.619392,33.255843],[35.619264,33.255413],[35.620079,33.253152],[35.620937,33.252936],[35.62201,33.253223],[35.62274,33.253188],[35.623598,33.252542],[35.623469,33.251357],[35.623169,33.250927],[35.623083,33.24985],[35.623126,33.249455],[35.623512,33.249132],[35.6251,33.246692],[35.625444,33.245615],[35.624414,33.244969],[35.623384,33.244574],[35.623169,33.244251],[35.622783,33.243174],[35.623241,33.242853],[35.624223,33.242166],[35.624371,33.242062],[35.623984,33.237647],[35.608921,33.222785],[35.599995,33.218154],[35.578494,33.200883],[35.578365,33.193485],[35.569911,33.184902],[35.565786,33.182275],[35.563989,33.18113],[35.563731,33.177718],[35.564289,33.176317],[35.564632,33.174126],[35.565786,33.172292],[35.567594,33.16942],[35.568152,33.167624],[35.56828,33.162595],[35.569611,33.155876],[35.569053,33.148403],[35.56798,33.145816],[35.568538,33.141073],[35.567336,33.137372],[35.567851,33.12907],[35.568666,33.123823],[35.568109,33.118755],[35.568366,33.112788],[35.568386,33.112537],[35.568666,33.109086],[35.568624,33.105958],[35.570211,33.10319],[35.57034,33.101357],[35.571842,33.098229],[35.573816,33.09546],[35.574117,33.08996],[35.573387,33.086688],[35.572529,33.083883],[35.571713,33.07777],[35.575619,33.073706],[35.574117,33.069247],[35.568194,33.060292],[35.571542,33.057702],[35.570812,33.055328],[35.568838,33.053098],[35.565786,33.052593],[35.55841,33.051371],[35.558287,33.050467],[35.556994,33.040903],[35.559354,33.035758],[35.564246,33.029606],[35.565786,33.029316],[35.57725,33.02716],[35.589438,33.022338],[35.592227,33.020071],[35.596099,33.015868],[35.599222,33.012478],[35.614586,33.004561],[35.616603,33.002437],[35.619307,33.000566],[35.620122,32.999018],[35.618834,32.99801],[35.622912,32.989372],[35.623641,32.985124],[35.620508,32.97796],[35.620079,32.970364],[35.618405,32.965179],[35.619435,32.961002],[35.615916,32.953944],[35.6145,32.950163],[35.615487,32.943789],[35.612226,32.939755],[35.612097,32.934136],[35.610209,32.924735],[35.615444,32.917638],[35.649733,32.913099],[35.667329,32.921097],[35.665414,32.927546],[35.661793,32.939737],[35.659819,32.941124],[35.654004,32.942565],[35.651193,32.945158],[35.647116,32.946382],[35.640678,32.952828],[35.638146,32.961578],[35.64364,32.987932],[35.642224,32.993251],[35.643125,32.994754],[35.641408,33.001574],[35.641923,33.003482],[35.64115,33.007188],[35.642234,33.00874],[35.641343,33.011948],[35.639648,33.013324],[35.639691,33.016005],[35.643382,33.019675],[35.645092,33.022062],[35.645124,33.022107],[35.646129,33.024749],[35.645571,33.038313],[35.648189,33.042954],[35.651708,33.041605],[35.653682,33.041766],[35.648918,33.046066],[35.649304,33.047055],[35.650259,33.04724],[35.65087,33.049366],[35.649776,33.053908],[35.649819,33.056803],[35.650634,33.058637],[35.65351,33.062629],[35.652823,33.067629],[35.653982,33.069175],[35.649004,33.077087],[35.649326,33.081061],[35.650248,33.083955],[35.648746,33.087299],[35.650141,33.089277],[35.650077,33.091398],[35.653081,33.10035],[35.651896,33.102781],[35.651998,33.104422],[35.651343,33.105976],[35.651236,33.108295],[35.651746,33.112227],[35.65175,33.112285],[35.652051,33.116653],[35.65115,33.118935],[35.651536,33.123104],[35.652823,33.125988],[35.654626,33.129304],[35.65454,33.130256],[35.655398,33.132376],[35.659304,33.135575],[35.660168,33.137947],[35.660087,33.139672],[35.660098,33.141396],[35.659604,33.143983],[35.660119,33.146104],[35.660119,33.150272],[35.661793,33.153074],[35.661793,33.160044],[35.664336,33.165504],[35.663188,33.171396],[35.660548,33.172689],[35.661879,33.174916],[35.66072,33.177377],[35.660162,33.17797],[35.659261,33.182639],[35.659787,33.184156],[35.660742,33.185027],[35.661707,33.1872],[35.660849,33.188457],[35.661063,33.191618],[35.662447,33.196646],[35.662286,33.199375],[35.662136,33.200093],[35.66278,33.202346],[35.66308,33.204887],[35.662136,33.207526],[35.662924,33.20832],[35.663799,33.210767],[35.664947,33.211709],[35.665526,33.211655],[35.667661,33.214716],[35.667221,33.216627],[35.667801,33.218584],[35.666294,33.218822],[35.665559,33.219706],[35.663145,33.220756],[35.662351,33.221564],[35.660505,33.234739],[35.664797,33.240698],[35.665183,33.242636],[35.674238,33.253654],[35.671495,33.256837],[35.668751,33.257543],[35.66704,33.259602],[35.665677,33.260132],[35.663467,33.263056],[35.659819,33.262374],[35.658504,33.263128],[35.657448,33.26424],[35.656364,33.265747],[35.658531,33.272924],[35.658531,33.274072],[35.652159,33.276684],[35.652143,33.27666],[35.639938,33.275445],[35.637256,33.275178],[35.636145,33.275067],[35.631092,33.274565],[35.62029,33.269638]]]]}},
{"type":"Feature","properties":{"id":"5","name_he":"רמת הגולן","name_en":"Golan Heights","label":[35.7509,32.99063]},"geometry":{"type":"MultiPolygon","coordinates":[[[[35.782846,33.260659],[35.781536,33.260087],[35.77812,33.257929],[35.773579,33.250319],[35.771184,33.250101],[35.769854,33.247697],[35.768223,33.245722],[35.766978,33.245041],[35.765176,33.242241],[35.760069,33.239405],[35.752347,33.234764],[35.750118,33.234142],[35.748322,33.232038],[35.74473,33.231777],[35.738747,33.230538],[35.736825,33.231577],[35.738472,33.2371],[35.740478,33.239532],[35.736422,33.241308],[35.737758,33.244392],[35.742956,33.246544],[35.740821,33.249985],[35.74007,33.25213],[35.731144,33.251071],[35.728483,33.254121],[35.727067,33.255987],[35.725994,33.256633],[35.722647,33.255341],[35.721188,33.2557],[35.719828,33.255574],[35.71718,33.256238],[35.715233,33.255843],[35.711424,33.255485],[35.709643,33.254767],[35.70797,33.254767],[35.700932,33.253044],[35.696812,33.251608],[35.689087,33.257422],[35.681748,33.253852],[35.674238,33.253654],[35.665183,33.242636],[35.664797,33.240698],[35.660505,33.234739],[35.662351,33.221564],[35.663145,33.220756],[35.665559,33.219706],[35.666294,33.218822],[35.667801,33.218584],[35.667221,33.216627],[35.667661,33.214716],[35.665526,33.211655],[35.664947,33.211709],[35.663799,33.210767],[35.662924,33.20832],[35.662136,33.207526],[35.66308,33.204887],[35.66278,33.202346],[35.662136,33.200093],[35.662286,33.199375],[35.662447,33.196646],[35.661063,33.191618],[35.660849,33.188457],[35.661707,33.1872],[35.660742,33.185027],[35.659787,33.184156],[35.659261,33.182639],[35.660162,33.17797],[35.66072,33.177377],[35.661879,33.174916],[35.660548,33.172689],[35.663188,33.171396],[35.664336,33.165504],[35.661793,33.160044],[35.661793,33.153074],[35.660119,33.150272],[35.660119,33.146104],[35.659604,33.143983],[35.660098,33.141396],[35.660087,33.139672],[35.660168,33.137947],[35.659304,33.135575],[35.655398,33.132376],[35.65454,33.130256],[35.654626,33.129304],[35.652823,33.125988],[35.651536,33.123104],[35.65115,33.118935],[35.652051,33.116653],[35.65175,33.112285],[35.651746,33.112227],[35.651236,33.108295],[35.651343,33.105976],[35.651998,33.104422],[35.651896,33.102781],[35.653081,33.10035],[35.650077,33.091398],[35.650141,33.089277],[35.648746,33.087299],[35.650248,33.083955],[35.649326,33.081061],[35.649004,33.077087],[35.653982,33.069175],[35.652823,33.067629],[35.65351,33.062629],[35.650634,33.058637],[35.649819,33.056803],[35.649776,33.053908],[35.65087,33.049366],[35.650259,33.04724],[35.649304,33.047055],[35.648918,33.046066],[35.653682,33.041766],[35.651708,33.041605],[35.648189,33.042954],[35.645571,33.038313],[35.646129,33.024749],[35.645124,33.022107],[35.645092,33.022062],[35.643382,33.019675],[35.639691,33.016005],[35.639648,33.013324],[35.641343,33.011948],[35.642234,33.00874],[35.64115,33.007188],[35.641923,33.003482],[35.641408,33.001574],[35.643125,32.994754],[35.642224,32.993251],[35.64364,32.987932],[35.638146,32.961578],[35.640678,32.952828],[35.647116,32.946382],[35.651193,32.945158],[35.654004,32.942565],[35.659819,32.941124],[35.661793,32.939737],[35.665414,32.927546],[35.667329,32.921097],[35.649733,32.913099],[35.653854,32.908866],[35.661235,32.904488],[35.66411,32.902229],[35.667619,32.899471],[35.670204,32.898759],[35.674152,32.895732],[35.673132,32.892831],[35.673037,32.892561],[35.672554,32.89076],[35.670284,32.887264],[35.669021,32.886165],[35.666814,32.88276],[35.665655,32.880129],[35.660934,32.876957],[35.657866,32.872595],[35.65557,32.86809],[35.668402,32.86308],[35.66381,32.861818],[35.658789,32.859944],[35.660033,32.853274],[35.658488,32.847831],[35.659175,32.844441],[35.657673,32.841682],[35.655999,32.837338],[35.655699,32.833841],[35.656257,32.83247],[35.659197,32.833065],[35.66161,32.832461],[35.665092,32.833818],[35.667286,32.832434],[35.66956,32.825979],[35.669861,32.822733],[35.659819,32.823851],[35.656815,32.822282],[35.653982,32.823166],[35.653338,32.820894],[35.655227,32.819343],[35.652094,32.813176],[35.649948,32.810759],[35.650206,32.805998],[35.648017,32.804844],[35.647652,32.804447],[35.648146,32.80369],[35.649433,32.803473],[35.650463,32.801778],[35.650212,32.798382],[35.650077,32.796547],[35.647674,32.793192],[35.646944,32.789548],[35.649991,32.787709],[35.654883,32.786518],[35.659003,32.783668],[35.658832,32.782621],[35.653253,32.781611],[35.651579,32.780312],[35.651836,32.778256],[35.653639,32.775585],[35.64909,32.771616],[35.649004,32.770245],[35.649841,32.769631],[35.650678,32.768224],[35.649605,32.767304],[35.647502,32.766745],[35.648189,32.764832],[35.645657,32.761909],[35.646279,32.75857],[35.642953,32.745487],[35.642824,32.74047],[35.640721,32.739278],[35.640721,32.736588],[35.637374,32.720758],[35.635014,32.719964],[35.63364,32.717473],[35.632889,32.715071],[35.630164,32.713753],[35.629657,32.712311],[35.629687,32.712178],[35.6304,32.709005],[35.629392,32.70404],[35.631237,32.701114],[35.629907,32.697539],[35.634027,32.693386],[35.631623,32.690389],[35.632482,32.689449],[35.635486,32.691508],[35.637116,32.689883],[35.641773,32.687607],[35.64394,32.688438],[35.644198,32.68414],[35.645327,32.683238],[35.652015,32.686171],[35.675686,32.704054],[35.675225,32.704654],[35.675268,32.704943],[35.675612,32.705412],[35.675955,32.705737],[35.67677,32.705954],[35.678201,32.705954],[35.685191,32.711234],[35.703519,32.721001],[35.740175,32.740535],[35.755161,32.743788],[35.755906,32.744729],[35.756807,32.745018],[35.758052,32.745234],[35.759468,32.746859],[35.760115,32.747535],[35.779564,32.772092],[35.784203,32.777949],[35.834226,32.827946],[35.841874,32.853577],[35.83805,32.866031],[35.849729,32.895823],[35.866885,32.920782],[35.873553,32.922232],[35.873966,32.922826],[35.874488,32.923091],[35.888073,32.944941],[35.864611,32.97773],[35.85903,32.99021],[35.845801,33.085423],[35.848902,33.098678],[35.832305,33.104547],[35.811488,33.111908],[35.811488,33.114874],[35.806332,33.116994],[35.807018,33.130076],[35.815943,33.132786],[35.822443,33.14157],[35.833399,33.161129],[35.830195,33.189991],[35.827707,33.191286],[35.817833,33.196427],[35.807664,33.201721],[35.803633,33.248463],[35.785862,33.25889],[35.782846,33.260659]]]]}},
{"type":"Feature","properties":{"id":"6","name_he":"הגליל התחתון","name_en":"Lower Galilee","label":[35.33857,32.81498]},"geometry":{"type":"MultiPolygon","coordinates":[[[[35.193415,32.914972],[35.198135,32.906794],[35.178051,32.877172],[35.176034,32.868558],[35.170483,32.860867],[35.169296,32.859222],[35.169082,32.852192],[35.165391,32.846856],[35.161185,32.838203],[35.155006,32.831351],[35.152774,32.827529],[35.150328,32.818874],[35.147667,32.811299],[35.142217,32.795211],[35.13608,32.78244],[35.11857,32.770533],[35.116425,32.757541],[35.107842,32.742021],[35.108271,32.736769],[35.110417,32.731805],[35.120802,32.725595],[35.141702,32.728411],[35.173502,32.72184],[35.205216,32.71545],[35.214847,32.705398],[35.218778,32.701294],[35.228176,32.696744],[35.246029,32.689593],[35.269718,32.669509],[35.301304,32.67659],[35.326624,32.689448],[35.403614,32.670232],[35.409365,32.654985],[35.347824,32.639953],[35.341387,32.631063],[35.340786,32.620075],[35.341902,32.611038],[35.36911,32.600482],[35.392714,32.57593],[35.397692,32.577955],[35.42151,32.584536],[35.434728,32.578606],[35.439148,32.575532],[35.4458,32.568444],[35.450821,32.566924],[35.470133,32.566744],[35.473094,32.568552],[35.479188,32.569746],[35.483308,32.571337],[35.486784,32.568444],[35.493307,32.566961],[35.495367,32.563199],[35.503135,32.555459],[35.51146,32.551082],[35.525365,32.549092],[35.532017,32.549237],[35.535793,32.552746],[35.546093,32.564393],[35.549011,32.571626],[35.54738,32.575894],[35.544205,32.581644],[35.539742,32.599252],[35.542274,32.612846],[35.542531,32.617581],[35.54575,32.623039],[35.543947,32.627051],[35.548961,32.635116],[35.55253,32.640856],[35.552444,32.645085],[35.550771,32.648481],[35.548754,32.650035],[35.542016,32.651986],[35.542145,32.653793],[35.543003,32.654696],[35.548239,32.655997],[35.547252,32.659104],[35.543175,32.661742],[35.545235,32.667956],[35.544076,32.67482],[35.541802,32.67742],[35.547681,32.691074],[35.549526,32.698766],[35.553904,32.708011],[35.553432,32.714836],[35.555363,32.718158],[35.555518,32.718488],[35.559697,32.7274],[35.56095,32.734678],[35.561972,32.740613],[35.560985,32.747868],[35.552316,32.760861],[35.534291,32.769919],[35.500002,32.772806],[35.494981,32.779337],[35.496226,32.787094],[35.505387,32.792271],[35.512072,32.797746],[35.513864,32.802643],[35.519571,32.810181],[35.519056,32.815267],[35.514593,32.821434],[35.506182,32.82724],[35.4985,32.828322],[35.493929,32.826032],[35.489359,32.825617],[35.488758,32.827366],[35.486398,32.829548],[35.489831,32.83182],[35.495324,32.832974],[35.493951,32.837265],[35.491633,32.841592],[35.494573,32.843935],[35.502158,32.84444],[35.505323,32.847649],[35.506782,32.86088],[35.508928,32.866467],[35.522876,32.871586],[35.529227,32.874541],[35.536737,32.873532],[35.539827,32.877749],[35.543132,32.879155],[35.545664,32.88211],[35.54811,32.88348],[35.547981,32.885678],[35.549698,32.899588],[35.552917,32.901353],[35.557637,32.906614],[35.558563,32.909959],[35.559182,32.912198],[35.561757,32.91436],[35.5618,32.920556],[35.551672,32.921961],[35.52043,32.909856],[35.501032,32.915837],[35.485668,32.921096],[35.471077,32.935145],[35.434599,32.928805],[35.416918,32.927869],[35.408506,32.930823],[35.403614,32.935145],[35.40061,32.933848],[35.39752,32.933992],[35.392113,32.937306],[35.383701,32.935721],[35.376492,32.941484],[35.368338,32.946094],[35.35718,32.943357],[35.343103,32.945373],[35.330744,32.944869],[35.324306,32.941988],[35.314007,32.939179],[35.293236,32.936081],[35.28182,32.936874],[35.275726,32.938098],[35.269547,32.938242],[35.259333,32.931111],[35.250578,32.922177],[35.240965,32.920952],[35.236502,32.920448],[35.229464,32.918647],[35.22397,32.91418],[35.217447,32.911514],[35.214843,32.911887],[35.210785,32.912468],[35.210409,32.912522],[35.202897,32.913705],[35.202169,32.913819],[35.193415,32.914972]]]]}},
{"type":"Feature","properties":{"id":"7","name_he":"ארץ כינרות","name_en":"Kinerot Natural Region","label":[35.58541,32.83173]},"geometry":{"type":"MultiPolygon","coordinates":[[[[35.645327,32.683238],[35.644198,32.68414],[35.64394,32.688438],[35.641773,32.687607],[35.637116,32.689883],[35.635486,32.691508],[35.632482,32.689449],[35.631623,32.690389],[35.634027,32.693386],[35.629907,32.697539],[35.631237,32.701114],[35.629392,32.70404],[35.6304,32.709005],[35.629687,32.712178],[35.629657,32.712311],[35.630164,32.713753],[35.632889,32.715071],[35.63364,32.717473],[35.635014,32.719964],[35.637374,32.720758],[35.640721,32.736588],[35.640721,32.739278],[35.642824,32.74047],[35.642953,32.745487],[35.646279,32.75857],[35.645657,32.761909],[35.648189,32.764832],[35.647502,32.766745],[35.649605,32.767304],[35.650678,32.768224],[35.649841,32.769631],[35.649004,32.770245],[35.64909,32.771616],[35.653639,32.775585],[35.651836,32.778256],[35.651579,32.780312],[35.653253,32.781611],[35.658832,32.782621],[35.659003,32.783668],[35.654883,32.786518],[35.649991,32.787709],[35.646944,32.789548],[35.647674,32.793192],[35.650077,32.796547],[35.650212,32.798382],[35.650463,32.801778],[35.649433,32.803473],[35.648146,32.80369],[35.647652,32.804447],[35.648017,32.804844],[35.650206,32.805998],[35.649948,32.810759],[35.652094,32.813176],[35.655227,32.819343],[35.653338,32.820894],[35.653982,32.823166],[35.656815,32.822282],[35.659819,32.823851],[35.669861,32.822733],[35.66956,32.825979],[35.667286,32.832434],[35.665092,32.833818],[35.66161,32.832461],[35.659197,32.833065],[35.656257,32.83247],[35.655699,32.833841],[35.655999,32.837338],[35.657673,32.841682],[35.659175,32.844441],[35.658488,32.847831],[35.660033,32.853274],[35.658789,32.859944],[35.66381,32.861818],[35.668402,32.86308],[35.65557,32.86809],[35.657866,32.872595],[35.660934,32.876957],[35.665655,32.880129],[35.666814,32.88276],[35.669021,32.886165],[35.670284,32.887264],[35.672554,32.89076],[35.673037,32.892561],[35.673132,32.892831],[35.674152,32.895732],[35.670204,32.898759],[35.667619,32.899471],[35.66411,32.902229],[35.661235,32.904488],[35.653854,32.908866],[35.649733,32.913099],[35.615444,32.917638],[35.576048,32.925996],[35.565786,32.929865],[35.555792,32.933632],[35.549269,32.931759],[35.551672,32.921961],[35.5618,32.920556],[35.561757,32.91436],[35.559182,32.912198],[35.558563,32.909959],[35.557637,32.906614],[35.552917,32.901353],[35.549698,32.899588],[35.547981,32.885678],[35.54811,32.88348],[35.545664,32.88211],[35.543132,32.879155],[35.539827,32.877749],[35.536737,32.873532],[35.529227,32.874541],[35.522876,32.871586],[35.508928,32.866467],[35.506782,32.86088],[35.505323,32.847649],[35.502158,32.84444],[35.494573,32.843935],[35.491633,32.841592],[35.493951,32.837265],[35.495324,32.832974],[35.489831,32.83182],[35.486398,32.829548],[35.488758,32.827366],[35.489359,32.825617],[35.493929,32.826032],[35.4985,32.828322],[35.506182,32.82724],[35.514593,32.821434],[35.519056,32.815267],[35.519571,32.810181],[35.513864,32.802643],[35.512072,32.797746],[35.505387,32.792271],[35.496226,32.787094],[35.494981,32.779337],[35.500002,32.772806],[35.534291,32.769919],[35.552316,32.760861],[35.560985,32.747868],[35.561972,32.740613],[35.56095,32.734678],[35.559697,32.7274],[35.555518,32.718488],[35.555363,32.718158],[35.553432,32.714836],[35.553904,32.708011],[35.549526,32.698766],[35.547681,32.691074],[35.541802,32.67742],[35.544076,32.67482],[35.545235,32.667956],[35.543175,32.661742],[35.547252,32.659104],[35.548239,32.655997],[35.543003,32.654696],[35.542145,32.653793],[35.542016,32.651986],[35.548754,32.650035],[35.550771,32.648481],[35.552444,32.645085],[35.56077,32.644868],[35.560856,32.645663],[35.562358,32.647144],[35.564032,32.647614],[35.564976,32.647578],[35.568023,32.646891],[35.569844,32.646766],[35.569849,32.646768],[35.578737,32.653434],[35.593827,32.670358],[35.612224,32.681546],[35.611758,32.6819],[35.612334,32.681535],[35.628484,32.679903],[35.630207,32.6819],[35.630894,32.683091],[35.632954,32.685367],[35.634413,32.686378],[35.634928,32.686306],[35.635829,32.685511],[35.636945,32.684356],[35.637717,32.683742],[35.641789,32.681685],[35.645327,32.683238]]]]}},
{"type":"Feature","properties":{"id":"8","name_he":"רכס הכרמל","name_en":"Carmel Ridge","label":[35.03814,32.68477]},"geometry":{"type":"MultiPolygon","coordinates":[[[[34.956597,32.81825],[34.956651,32.817359],[34.957809,32.813824],[34.958625,32.809785],[34.960342,32.806214],[34.964376,32.804987],[34.965792,32.800586],[34.966221,32.797196],[34.969568,32.792939],[34.971328,32.788826],[34.971628,32.783342],[34.970727,32.775837],[34.964376,32.772084],[34.964976,32.757469],[34.970856,32.742815],[34.972615,32.735812],[34.975491,32.728339],[34.973044,32.723573],[34.97313,32.7161],[34.972744,32.708553],[34.977207,32.703172],[34.978151,32.698369],[34.975018,32.696094],[34.970942,32.690026],[34.968367,32.680635],[34.967345,32.674236],[34.966607,32.669618],[34.966564,32.661561],[34.964762,32.654226],[34.962745,32.652095],[34.962487,32.649999],[34.967337,32.646783],[34.964762,32.642483],[34.964247,32.633809],[34.960256,32.630376],[34.960256,32.626292],[34.959354,32.619244],[34.956951,32.611291],[34.956136,32.606664],[34.960256,32.599686],[34.946308,32.588695],[34.94472,32.580522],[34.941072,32.571771],[34.940327,32.570242],[34.937545,32.564531],[34.936051,32.561463],[34.933691,32.553216],[34.933749,32.549344],[34.93382,32.544534],[34.93485,32.537298],[34.944978,32.543883],[34.96562,32.551588],[34.973817,32.566852],[34.986219,32.58262],[35.00659,32.596653],[35.014458,32.602072],[35.041752,32.611363],[35.063982,32.61646],[35.07235,32.624304],[35.079775,32.641579],[35.088658,32.654082],[35.096598,32.660188],[35.101232,32.661453],[35.103464,32.676553],[35.10016,32.688943],[35.099087,32.698261],[35.097156,32.707614],[35.096126,32.714764],[35.089474,32.721696],[35.086942,32.723321],[35.080118,32.733899],[35.076384,32.738267],[35.073252,32.740866],[35.069733,32.743212],[35.062265,32.750359],[35.056772,32.756242],[35.051665,32.760897],[35.052266,32.766491],[35.050936,32.768584],[35.041881,32.775332],[35.035829,32.777136],[35.035567,32.777234],[35.030808,32.779012],[35.029736,32.780022],[35.030594,32.782728],[35.019608,32.796149],[35.00536,32.810867],[35.001969,32.814906],[34.99948,32.81707],[34.992828,32.819847],[34.985318,32.823454],[34.98167,32.823598],[34.979181,32.825473],[34.974933,32.828034],[34.973046,32.828902],[34.970149,32.830233],[34.965973,32.827768],[34.9652,32.827336],[34.9628,32.820536],[34.962826,32.820029],[34.956597,32.81825]]]]}},
{"type":"Feature","properties":{"id":"9","name_he":"רמות מנשה","name_en":"Ramot Menashe","label":[35.08321,32.56193]},"geometry":{"type":"MultiPolygon","coordinates":[[[[35.181686,32.568298],[35.174661,32.575966],[35.172472,32.595131],[35.159941,32.604712],[35.141444,32.615376],[35.129814,32.630484],[35.125995,32.644073],[35.115395,32.66362],[35.103464,32.676553],[35.101232,32.661453],[35.096598,32.660188],[35.088658,32.654082],[35.079775,32.641579],[35.07235,32.624304],[35.063982,32.61646],[35.041752,32.611363],[35.014458,32.602072],[35.00659,32.596653],[34.986219,32.58262],[34.973817,32.566852],[34.96562,32.551588],[34.944978,32.543883],[34.93485,32.537298],[34.979954,32.530171],[35.025959,32.524526],[35.027676,32.498614],[35.042954,32.485149],[35.043762,32.48449],[35.043814,32.484448],[35.06859,32.500023],[35.085946,32.502798],[35.089686,32.504911],[35.09251,32.505504],[35.107143,32.50774],[35.117651,32.512507],[35.135704,32.523827],[35.15527,32.540594],[35.160736,32.545311],[35.164421,32.551083],[35.169264,32.556631],[35.172012,32.558686],[35.172464,32.561996],[35.17682,32.564433],[35.181686,32.568298]]]]}},
{"type":"Feature","properties":{"id":"10","name_he":"עמק יזרעאל","name_en":"Yizreel Valley","label":[35.25954,32.5995]},"geometry":{"type":"MultiPolygon","coordinates":[[[[35.103464,32.676553],[35.115395,32.66362],[35.125995,32.644073],[35.129814,32.630484],[35.141444,32.615376],[35.159941,32.604712],[35.172472,32.595131],[35.174661,32.575966],[35.181686,32.568298],[35.20041,32.547862],[35.213413,32.540808],[35.214847,32.538899],[35.223414,32.527489],[35.235558,32.511318],[35.265083,32.490506],[35.277615,32.483846],[35.287957,32.494995],[35.30242,32.493945],[35.317955,32.489819],[35.357394,32.477148],[35.359204,32.483932],[35.361943,32.494199],[35.374088,32.509219],[35.368424,32.515986],[35.36293,32.52297],[35.362339,32.523808],[35.358081,32.529845],[35.353575,32.539903],[35.349884,32.545258],[35.348253,32.549056],[35.351472,32.551335],[35.358253,32.551082],[35.363874,32.54873],[35.372415,32.543702],[35.382586,32.554844],[35.386534,32.562295],[35.387349,32.567286],[35.392714,32.57593],[35.36911,32.600482],[35.341902,32.611038],[35.340786,32.620075],[35.341387,32.631063],[35.347824,32.639953],[35.409365,32.654985],[35.403614,32.670232],[35.326624,32.689448],[35.301304,32.67659],[35.269718,32.669509],[35.246029,32.689593],[35.228176,32.696744],[35.218778,32.701294],[35.214847,32.705398],[35.205216,32.71545],[35.173502,32.72184],[35.141702,32.728411],[35.120802,32.725595],[35.110417,32.731805],[35.089474,32.721696],[35.096126,32.714764],[35.097156,32.707614],[35.099087,32.698261],[35.10016,32.688943],[35.103464,32.676553]]]]}},
{"type":"Feature","properties":{"id":"11","name_he":"מרכז מישור החוף","name_en":"Central Coastal Plain","label":[34.94858,32.31955]},"geometry":{"type":"MultiPolygon","coordinates":[[[[34.776159,32.106249],[34.773102,32.099154],[34.76984,32.087665],[34.76366,32.070502],[34.7616,32.06832],[34.760056,32.061919],[34.755936,32.056245],[34.751301,32.055081],[34.745979,32.047806],[34.744091,32.045769],[34.745808,32.044605],[34.744949,32.037912],[34.756966,32.036602],[34.762603,32.03703],[34.77808,32.038203],[34.857559,32.035875],[34.940004,32.053977],[34.943047,32.054645],[34.953775,32.0569],[34.973002,32.065592],[34.989052,32.080793],[34.986048,32.089192],[34.982958,32.089483],[34.986005,32.097772],[34.970126,32.103335],[34.96047,32.110569],[34.961972,32.120056],[34.972272,32.124853],[34.98004,32.134193],[34.974461,32.152289],[34.977894,32.158102],[34.967422,32.168638],[34.996605,32.183531],[34.995747,32.216432],[35.020037,32.234366],[35.024071,32.255346],[35.030766,32.26558],[35.043468,32.293082],[35.051966,32.299467],[35.065055,32.319634],[35.042524,32.348679],[35.051966,32.367856],[35.049133,32.376192],[35.042095,32.377932],[35.039864,32.381121],[35.049648,32.394168],[35.05394,32.402864],[35.055485,32.411704],[35.057373,32.419675],[35.073853,32.45995],[35.043814,32.484448],[35.043762,32.48449],[35.042954,32.485149],[35.027676,32.498614],[35.025959,32.524526],[34.979954,32.530171],[34.93485,32.537298],[34.915967,32.530641],[34.904565,32.52879],[34.90271,32.522737],[34.902681,32.522641],[34.899321,32.511677],[34.899028,32.510719],[34.897195,32.504737],[34.897044,32.504242],[34.896895,32.503757],[34.896338,32.501939],[34.89616,32.501357],[34.895855,32.500362],[34.895112,32.494438],[34.893185,32.479062],[34.890926,32.468456],[34.88945,32.46431],[34.88938,32.464113],[34.88642,32.455794],[34.886417,32.455788],[34.886317,32.455505],[34.883546,32.447716],[34.883428,32.447383],[34.883106,32.44648],[34.882675,32.444863],[34.882282,32.44339],[34.881746,32.441385],[34.881618,32.440905],[34.881537,32.4406],[34.875522,32.418151],[34.871982,32.404936],[34.869925,32.397261],[34.86685,32.387411],[34.86275,32.375361],[34.857452,32.362916],[34.856935,32.361893],[34.856917,32.361814],[34.85691,32.361785],[34.856908,32.361778],[34.855027,32.353865],[34.854126,32.349223],[34.853234,32.346305],[34.852745,32.344245],[34.852729,32.344195],[34.839745,32.289511],[34.837657,32.280707],[34.82564,32.24886],[34.824251,32.244518],[34.822081,32.235069],[34.821627,32.233891],[34.821039,32.232363],[34.82095,32.232136],[34.819323,32.229866],[34.814644,32.217158],[34.807606,32.198421],[34.806061,32.196097],[34.800224,32.174014],[34.798508,32.171108],[34.796791,32.165296],[34.795933,32.157303],[34.78637,32.132494],[34.785475,32.126816],[34.785391,32.126288],[34.781827,32.115989],[34.779449,32.111883],[34.777137,32.107923],[34.776159,32.106249]]]]}},
{"type":"Feature","properties":{"id":"12","name_he":"השומרון","name_en":"Samaria","label":[35.29055,32.28661]},"geometry":{"type":"MultiPolygon","coordinates":[[[[35.043814,32.484448],[35.073853,32.45995],[35.057373,32.419675],[35.055485,32.411704],[35.05394,32.402864],[35.049648,32.394168],[35.039864,32.381121],[35.042095,32.377932],[35.049133,32.376192],[35.051966,32.367856],[35.042524,32.348679],[35.065055,32.319634],[35.051966,32.299467],[35.043468,32.293082],[35.030766,32.26558],[35.024071,32.255346],[35.020037,32.234366],[34.995747,32.216432],[34.996605,32.183531],[34.967422,32.168638],[34.977894,32.158102],[34.974461,32.152289],[35.003471,32.155268],[35.054369,32.144877],[35.067329,32.115294],[35.064583,32.064538],[35.04261,32.046351],[35.075569,32.04446],[35.078144,32.059155],[35.111275,32.063519],[35.143032,32.056391],[35.183716,32.064247],[35.210066,32.080175],[35.214847,32.08238],[35.243025,32.095373],[35.258045,32.093991],[35.268516,32.086065],[35.303793,32.074938],[35.311346,32.060537],[35.341473,32.042423],[35.360355,32.043587],[35.374389,32.04195],[35.383358,32.039112],[35.402455,32.038894],[35.417733,32.034237],[35.430994,32.035001],[35.434084,32.049589],[35.436573,32.061701],[35.450048,32.062646],[35.455027,32.054208],[35.46155,32.054863],[35.462494,32.06061],[35.492792,32.080175],[35.494165,32.09021],[35.508842,32.132958],[35.508925,32.133306],[35.510044,32.137973],[35.507212,32.146839],[35.510662,32.157061],[35.514164,32.167439],[35.520687,32.167657],[35.524421,32.168892],[35.526652,32.171253],[35.526009,32.174123],[35.527296,32.17663],[35.53133,32.177065],[35.532017,32.181642],[35.532789,32.193591],[35.536179,32.199729],[35.537081,32.205067],[35.542874,32.223512],[35.5406,32.236072],[35.538282,32.243732],[35.542359,32.245292],[35.544634,32.263765],[35.543089,32.275232],[35.541716,32.279368],[35.54399,32.282634],[35.538325,32.304074],[35.530343,32.311618],[35.528071,32.320665],[35.52455,32.334683],[35.520043,32.347373],[35.507169,32.35999],[35.501376,32.369716],[35.496612,32.377714],[35.49129,32.379998],[35.489359,32.387427],[35.484539,32.398715],[35.483866,32.400291],[35.481548,32.405255],[35.478201,32.408444],[35.4779,32.411415],[35.474167,32.425761],[35.469532,32.432317],[35.466185,32.449483],[35.464511,32.458067],[35.44992,32.469147],[35.445886,32.475157],[35.44344,32.480696],[35.435071,32.493076],[35.438805,32.503862],[35.43108,32.511246],[35.424085,32.515805],[35.423795,32.515965],[35.407948,32.524707],[35.400095,32.52525],[35.388293,32.529737],[35.37941,32.540084],[35.372415,32.543702],[35.363874,32.54873],[35.358253,32.551082],[35.351472,32.551335],[35.348253,32.549056],[35.349884,32.545258],[35.353575,32.539903],[35.358081,32.529845],[35.362339,32.523808],[35.36293,32.52297],[35.368424,32.515986],[35.374088,32.509219],[35.361943,32.494199],[35.359204,32.483932],[35.357394,32.477148],[35.317955,32.489819],[35.30242,32.493945],[35.287957,32.494995],[35.277615,32.483846],[35.265083,32.490506],[35.235558,32.511318],[35.223414,32.527489],[35.214847,32.538899],[35.213413,32.540808],[35.20041,32.547862],[35.181686,32.568298],[35.17682,32.564433],[35.172464,32.561996],[35.172012,32.558686],[35.169264,32.556631],[35.164421,32.551083],[35.160736,32.545311],[35.15527,32.540594],[35.135704,32.523827],[35.117651,32.512507],[35.107143,32.50774],[35.09251,32.505504],[35.089686,32.504911],[35.085946,32.502798],[35.06859,32.500023],[35.043814,32.484448]]]]}},
{"type":"Feature","properties":{"id":"13","name_he":"בקעת הירדן","name_en":"Jordan Rift Valley","label":[35.49755,32.50013]},"geometry":{"type":"MultiPolygon","coordinates":[[[[35.563894,32.644632],[35.56077,32.644868],[35.552444,32.645085],[35.55253,32.640856],[35.548961,32.635116],[35.543947,32.627051],[35.54575,32.623039],[35.542531,32.617581],[35.542274,32.612846],[35.539742,32.599252],[35.544205,32.581644],[35.54738,32.575894],[35.549011,32.571626],[35.546093,32.564393],[35.535793,32.552746],[35.532017,32.549237],[35.525365,32.549092],[35.51146,32.551082],[35.503135,32.555459],[35.495367,32.563199],[35.493307,32.566961],[35.486784,32.568444],[35.483308,32.571337],[35.479188,32.569746],[35.473094,32.568552],[35.470133,32.566744],[35.450821,32.566924],[35.4458,32.568444],[35.439148,32.575532],[35.434728,32.578606],[35.42151,32.584536],[35.397692,32.577955],[35.392714,32.57593],[35.387349,32.567286],[35.386534,32.562295],[35.382586,32.554844],[35.372415,32.543702],[35.37941,32.540084],[35.388293,32.529737],[35.400095,32.52525],[35.407948,32.524707],[35.423795,32.515965],[35.424085,32.515805],[35.43108,32.511246],[35.438805,32.503862],[35.435071,32.493076],[35.44344,32.480696],[35.445886,32.475157],[35.44992,32.469147],[35.464511,32.458067],[35.466185,32.449483],[35.469532,32.432317],[35.474167,32.425761],[35.4779,32.411415],[35.478201,32.408444],[35.481548,32.405255],[35.483866,32.400291],[35.484539,32.398715],[35.489359,32.387427],[35.49129,32.379998],[35.496612,32.377714],[35.501376,32.369716],[35.507169,32.35999],[35.520043,32.347373],[35.52455,32.334683],[35.528071,32.320665],[35.530343,32.311618],[35.538325,32.304074],[35.54399,32.282634],[35.541716,32.279368],[35.543089,32.275232],[35.544634,32.263765],[35.542359,32.245292],[35.538282,32.243732],[35.5406,32.236072],[35.542874,32.223512],[35.537081,32.205067],[35.536179,32.199729],[35.532789,32.193591],[35.532017,32.181642],[35.53133,32.177065],[35.527296,32.17663],[35.526009,32.174123],[35.526652,32.171253],[35.524421,32.168892],[35.520687,32.167657],[35.514164,32.167439],[35.510662,32.157061],[35.507212,32.146839],[35.510044,32.137973],[35.508925,32.133306],[35.508842,32.132958],[35.494165,32.09021],[35.492792,32.080175],[35.462494,32.06061],[35.46155,32.054863],[35.455027,32.054208],[35.450048,32.062646],[35.436573,32.061701],[35.434084,32.049589],[35.430994,32.035001],[35.471334,32.028162],[35.524145,32.025069],[35.522824,32.057838],[35.528301,32.075098],[35.545148,32.086828],[35.534606,32.09923],[35.535226,32.110806],[35.551969,32.135197],[35.546698,32.141605],[35.546698,32.147031],[35.551246,32.151527],[35.55941,32.155093],[35.55941,32.162534],[35.555173,32.174394],[35.559562,32.190371],[35.568338,32.222313],[35.567207,32.224129],[35.569129,32.225192],[35.570506,32.230203],[35.564461,32.230954],[35.567078,32.237594],[35.564696,32.237594],[35.55941,32.237594],[35.561064,32.243149],[35.563751,32.246818],[35.567575,32.249506],[35.571917,32.251609],[35.571928,32.251934],[35.566435,32.258612],[35.564862,32.26317],[35.564578,32.263587],[35.564513,32.263923],[35.561457,32.266088],[35.560598,32.272112],[35.562525,32.274096],[35.560857,32.28263],[35.561089,32.296889],[35.556908,32.298161],[35.561749,32.303224],[35.564595,32.310685],[35.562315,32.318328],[35.555105,32.322607],[35.556908,32.32757],[35.556517,32.328209],[35.556808,32.338789],[35.555448,32.343349],[35.556974,32.344805],[35.557343,32.358207],[35.551969,32.367948],[35.551969,32.374821],[35.55941,32.374821],[35.55941,32.367948],[35.563956,32.367948],[35.565124,32.37063],[35.563958,32.377043],[35.560961,32.384717],[35.557735,32.389556],[35.550728,32.394312],[35.551482,32.395952],[35.549592,32.39854],[35.545148,32.409573],[35.554863,32.411175],[35.5591,32.413966],[35.55817,32.417997],[35.551969,32.423242],[35.551969,32.429443],[35.552247,32.429443],[35.55742,32.429443],[35.557079,32.429745],[35.559002,32.430675],[35.55786,32.43412],[35.556207,32.434791],[35.554139,32.434455],[35.551969,32.436212],[35.565612,32.443706],[35.55941,32.450527],[35.566232,32.453111],[35.572536,32.456728],[35.572536,32.464195],[35.568092,32.46497],[35.565405,32.466314],[35.563131,32.468174],[35.55941,32.470396],[35.561271,32.477089],[35.564991,32.48391],[35.570986,32.489207],[35.579934,32.491469],[35.576992,32.497673],[35.565786,32.502909],[35.565062,32.503247],[35.565535,32.513978],[35.561374,32.519179],[35.55724,32.519334],[35.551969,32.518817],[35.551969,32.525587],[35.565612,32.525587],[35.562821,32.532021],[35.55941,32.55295],[35.565612,32.546102],[35.570159,32.556825],[35.572536,32.560391],[35.57388,32.556748],[35.574397,32.554396],[35.575844,32.554965],[35.577952,32.557733],[35.57785,32.558461],[35.57313,32.564393],[35.577001,32.566993],[35.574397,32.572767],[35.571296,32.598554],[35.565612,32.607546],[35.565612,32.615013],[35.568699,32.615013],[35.572536,32.615013],[35.572536,32.617821],[35.56965,32.622683],[35.569503,32.622756],[35.564061,32.625477],[35.560031,32.632686],[35.560547,32.640903],[35.562718,32.64421],[35.563894,32.644632]]]]}},
{"type":"Feature","properties":{"id":"14","name_he":"דרום מישור החוף","name_en":"Southern Coastal Plain","label":[34.68104,31.64755]},"geometry":{"type":"MultiPolygon","coordinates":[[[[34.219836,31.321716],[34.235501,31.296485],[34.239922,31.296008],[34.267387,31.219738],[34.284124,31.173521],[34.294081,31.145868],[34.429436,31.217499],[34.449005,31.250965],[34.464283,31.281962],[34.443469,31.298318],[34.454498,31.317201],[34.506683,31.379434],[34.508523,31.382203],[34.529858,31.414307],[34.61277,31.46264],[34.668732,31.485479],[34.709029,31.545552],[34.740915,31.551038],[34.769068,31.558754],[34.780226,31.571369],[34.790611,31.580656],[34.794645,31.596631],[34.796576,31.613883],[34.804816,31.627952],[34.805074,31.673983],[34.812369,31.702722],[34.823184,31.719114],[34.829965,31.734701],[34.840393,31.737438],[34.847217,31.760758],[34.868331,31.788193],[34.871464,31.812521],[34.886742,31.829586],[34.894595,31.857366],[34.926653,31.870706],[34.924035,31.890785],[34.925365,31.913155],[34.931717,31.918765],[34.928627,31.930785],[34.928884,31.934755],[34.936438,31.940254],[34.932661,31.950014],[34.943132,31.958898],[34.948196,31.964688],[34.9615,31.971095],[34.962418,31.974468],[34.963431,31.978194],[34.954033,31.99774],[34.953775,32.021467],[34.953346,32.03431],[34.940004,32.053977],[34.857559,32.035875],[34.77808,32.038203],[34.762603,32.03703],[34.756966,32.036602],[34.744949,32.037912],[34.744434,32.036311],[34.743061,32.03431],[34.741816,32.031218],[34.740915,32.030199],[34.741087,32.029253],[34.739456,32.025469],[34.739542,32.024414],[34.738426,32.02194],[34.738898,32.020266],[34.737096,32.015318],[34.736924,32.014007],[34.735465,32.010259],[34.734864,32.009131],[34.733448,32.004946],[34.732461,32.001635],[34.73053,31.996903],[34.729071,31.992681],[34.728384,31.991589],[34.728384,31.990061],[34.727697,31.989405],[34.726925,31.98744],[34.724822,31.981652],[34.723749,31.979432],[34.722934,31.977357],[34.721046,31.972988],[34.719029,31.967637],[34.712119,31.951725],[34.70963,31.946263],[34.707184,31.940291],[34.704351,31.935265],[34.702935,31.934464],[34.701648,31.932861],[34.700661,31.93257],[34.69933,31.930676],[34.698888,31.930258],[34.698252,31.929033],[34.698257,31.928964],[34.69811,31.92876],[34.696485,31.925628],[34.696455,31.92554],[34.69642,31.925502],[34.696405,31.925473],[34.695664,31.924593],[34.694484,31.923192],[34.6937,31.922336],[34.690342,31.915562],[34.685082,31.904266],[34.683623,31.901315],[34.682765,31.899129],[34.678216,31.889547],[34.666629,31.865895],[34.657574,31.847815],[34.652209,31.837826],[34.640622,31.818355],[34.639549,31.815183],[34.635601,31.806795],[34.633541,31.802747],[34.630709,31.798224],[34.628992,31.796911],[34.629378,31.794613],[34.62646,31.793081],[34.627361,31.792351],[34.62234,31.78294],[34.61513,31.770244],[34.608993,31.759699],[34.603929,31.751671],[34.599724,31.744409],[34.59878,31.743314],[34.595861,31.738825],[34.591355,31.731416],[34.590694,31.730457],[34.590562,31.730008],[34.590042,31.729111],[34.589516,31.728392],[34.588243,31.726652],[34.585517,31.722927],[34.58127,31.716157],[34.577788,31.710715],[34.578234,31.707745],[34.578396,31.706664],[34.5787,31.704536],[34.57433,31.702624],[34.572519,31.701836],[34.572458,31.70181],[34.572402,31.701785],[34.572391,31.701781],[34.572,31.701611],[34.571142,31.700239],[34.569426,31.698231],[34.5611,31.685779],[34.559028,31.684352],[34.55892,31.684198],[34.558904,31.684176],[34.558898,31.684167],[34.558892,31.684158],[34.558882,31.684143],[34.558714,31.683904],[34.558221,31.683199],[34.557582,31.682285],[34.557434,31.682074],[34.557352,31.681957],[34.557279,31.681853],[34.557276,31.681848],[34.557272,31.681841],[34.556008,31.680035],[34.555706,31.679603],[34.554291,31.67758],[34.552441,31.675199],[34.548722,31.670412],[34.548694,31.670377],[34.548666,31.670341],[34.548545,31.670185],[34.548542,31.670181],[34.548329,31.669906],[34.548054,31.66949],[34.54535,31.665874],[34.542646,31.661747],[34.541573,31.660906],[34.538655,31.656742],[34.530373,31.645381],[34.529772,31.645271],[34.528141,31.643298],[34.524794,31.639389],[34.523463,31.636831],[34.522219,31.636758],[34.520803,31.635516],[34.519945,31.636003],[34.518626,31.634061],[34.519773,31.633506],[34.517155,31.631168],[34.517198,31.630547],[34.515803,31.629905],[34.515179,31.628986],[34.514623,31.627916],[34.508523,31.618519],[34.507198,31.616478],[34.505096,31.613846],[34.49501,31.600104],[34.494968,31.599775],[34.49029,31.593561],[34.481749,31.581716],[34.479003,31.578682],[34.478914,31.578561],[34.47877,31.578274],[34.478042,31.577375],[34.476342,31.575062],[34.47248,31.569907],[34.46527,31.560656],[34.460721,31.555061],[34.458747,31.552464],[34.454713,31.547783],[34.452267,31.544894],[34.449863,31.542589],[34.44986,31.542585],[34.44337,31.534573],[34.438367,31.530156],[34.4348,31.526459],[34.431582,31.523532],[34.431094,31.523734],[34.429715,31.522517],[34.429865,31.522361],[34.426174,31.517752],[34.423685,31.514459],[34.417462,31.507288],[34.415274,31.505166],[34.414372,31.503849],[34.414212,31.50368],[34.408965,31.498141],[34.403772,31.493274],[34.400296,31.489834],[34.397163,31.486357],[34.393816,31.483173],[34.393344,31.482222],[34.392357,31.4816],[34.386778,31.475853],[34.383817,31.472449],[34.372487,31.4607],[34.371859,31.460462],[34.37106,31.459639],[34.371028,31.459565],[34.370342,31.458901],[34.362944,31.451286],[34.362917,31.451255],[34.362865,31.451204],[34.355898,31.444033],[34.355099,31.443212],[34.353518,31.441516],[34.344249,31.432032],[34.343889,31.431681],[34.336209,31.423788],[34.331186,31.419619],[34.330688,31.419105],[34.330009,31.418641],[34.329731,31.418411],[34.328723,31.417575],[34.328113,31.416908],[34.327572,31.416619],[34.32707,31.416202],[34.325379,31.414799],[34.324641,31.414187],[34.324635,31.414181],[34.324628,31.414176],[34.32462,31.414169],[34.324251,31.413863],[34.321804,31.411707],[34.320393,31.410661],[34.318633,31.409201],[34.318627,31.409196],[34.314684,31.405923],[34.314037,31.405386],[34.31262,31.404088],[34.311075,31.40266],[34.306354,31.398557],[34.305325,31.397898],[34.302878,31.396433],[34.302309,31.396058],[34.301638,31.395519],[34.300844,31.394874],[34.300089,31.394253],[34.299629,31.393871],[34.299182,31.393496],[34.298745,31.393127],[34.298318,31.392763],[34.297901,31.392403],[34.297492,31.392048],[34.297092,31.391696],[34.296699,31.391347],[34.296659,31.39131],[34.29421,31.389033],[34.294186,31.389012],[34.294141,31.388969],[34.2938,31.388636],[34.293487,31.388326],[34.293161,31.388],[34.29282,31.387655],[34.292457,31.387284],[34.291797,31.386605],[34.290335,31.385088],[34.2897,31.384436],[34.285707,31.380384],[34.284051,31.378706],[34.283983,31.378638],[34.282324,31.376957],[34.28093,31.375547],[34.279097,31.373691],[34.27786,31.372433],[34.277094,31.371657],[34.272179,31.366676],[34.272172,31.366671],[34.271542,31.366222],[34.270672,31.365601],[34.270058,31.365163],[34.266953,31.362947],[34.264467,31.3612],[34.264098,31.360955],[34.263816,31.360764],[34.263545,31.360579],[34.263284,31.360398],[34.263032,31.36022],[34.262789,31.360046],[34.262552,31.359874],[34.262323,31.359704],[34.2621,31.359536],[34.261725,31.359253],[34.261336,31.358967],[34.260931,31.358675],[34.260509,31.358377],[34.26007,31.358073],[34.259611,31.35776],[34.259281,31.357539],[34.258847,31.357228],[34.25756,31.356166],[34.256144,31.354516],[34.253783,31.352867],[34.253569,31.352391],[34.252152,31.351108],[34.249964,31.349569],[34.24829,31.34803],[34.245672,31.346014],[34.244256,31.344694],[34.243312,31.343705],[34.242539,31.343301],[34.239453,31.340635],[34.239431,31.340567],[34.239388,31.340425],[34.239347,31.340283],[34.239309,31.340141],[34.239273,31.339998],[34.239239,31.339856],[34.239207,31.339713],[34.239177,31.33957],[34.23915,31.339426],[34.239125,31.339283],[34.239103,31.339139],[34.239082,31.338995],[34.239064,31.338851],[34.239048,31.338707],[34.239034,31.338562],[34.239023,31.338417],[34.239014,31.338272],[34.239007,31.338127],[34.239002,31.337981],[34.239,31.337836],[34.2359,31.334936],[34.2304,31.330436],[34.226808,31.327454],[34.22677,31.327423],[34.226396,31.327115],[34.22636,31.327086],[34.224965,31.325937],[34.224908,31.32589],[34.223917,31.325075],[34.223796,31.324975],[34.223664,31.324867],[34.22342,31.324666],[34.220033,31.321878],[34.219836,31.321716]]]]}},
{"type":"Feature","properties":{"id":"15","name_he":"שפלת יהודה","name_en":"Judean Foothills","label":[34.91265,31.66373]},"geometry":{"type":"MultiPolygon","coordinates":[[[[35.04261,32.046351],[35.064583,32.064538],[35.067329,32.115294],[35.054369,32.144877],[35.003471,32.155268],[34.974461,32.152289],[34.98004,32.134193],[34.972272,32.124853],[34.961972,32.120056],[34.96047,32.110569],[34.970126,32.103335],[34.986005,32.097772],[34.982958,32.089483],[34.986048,32.089192],[34.989052,32.080793],[34.973002,32.065592],[34.953775,32.0569],[34.943047,32.054645],[34.940004,32.053977],[34.953346,32.03431],[34.953775,32.021467],[34.954033,31.99774],[34.963431,31.978194],[34.962418,31.974468],[34.9615,31.971095],[34.948196,31.964688],[34.943132,31.958898],[34.932661,31.950014],[34.936438,31.940254],[34.928884,31.934755],[34.928627,31.930785],[34.931717,31.918765],[34.925365,31.913155],[34.924035,31.890785],[34.926653,31.870706],[34.894595,31.857366],[34.886742,31.829586],[34.871464,31.812521],[34.868331,31.788193],[34.847217,31.760758],[34.840393,31.737438],[34.829965,31.734701],[34.823184,31.719114],[34.812369,31.702722],[34.805074,31.673983],[34.804816,31.627952],[34.796576,31.613883],[34.794645,31.596631],[34.790611,31.580656],[34.79516,31.537505],[34.795873,31.5322],[34.798937,31.50941],[34.7931,31.480136],[34.786234,31.451071],[34.791384,31.426686],[34.849405,31.417457],[34.853354,31.398777],[34.844513,31.386615],[34.835844,31.372985],[34.834986,31.341689],[34.868374,31.337217],[34.878716,31.373901],[34.881248,31.39863],[34.925709,31.459711],[34.946394,31.483283],[34.961243,31.497702],[34.961071,31.526093],[34.976006,31.533043],[34.991369,31.55667],[34.979782,31.576122],[35.001841,31.597472],[35.014715,31.624152],[35.023642,31.676978],[35.01214,31.706483],[35.016947,31.7443],[35.024757,31.764589],[35.019951,31.784217],[35.021324,31.800121],[35.046473,31.833962],[35.068273,31.857366],[35.075827,31.864437],[35.089474,31.88368],[35.09119,31.901242],[35.084925,31.924193],[35.088787,31.930457],[35.089731,31.948375],[35.072565,31.962722],[35.067158,31.97328],[35.060806,31.991626],[35.060978,32.002035],[35.046258,32.034128],[35.04261,32.046351]]]]}},
{"type":"Feature","properties":{"id":"16","name_he":"הרי יהודה","name_en":"Judean Hills","label":[35.07495,31.45089]},"geometry":{"type":"MultiPolygon","coordinates":[[[[35.04261,32.046351],[35.046258,32.034128],[35.060978,32.002035],[35.060806,31.991626],[35.067158,31.97328],[35.072565,31.962722],[35.089731,31.948375],[35.088787,31.930457],[35.084925,31.924193],[35.09119,31.901242],[35.089474,31.88368],[35.075827,31.864437],[35.068273,31.857366],[35.046473,31.833962],[35.021324,31.800121],[35.019951,31.784217],[35.024757,31.764589],[35.016947,31.7443],[35.01214,31.706483],[35.023642,31.676978],[35.014715,31.624152],[35.001841,31.597472],[34.979782,31.576122],[34.991369,31.55667],[34.976006,31.533043],[34.961071,31.526093],[34.961243,31.497702],[34.946394,31.483283],[34.925709,31.459711],[34.881248,31.39863],[34.878716,31.373901],[34.868374,31.337217],[34.916439,31.296741],[34.954548,31.26065],[34.984589,31.233793],[35.011883,31.240252],[35.036173,31.282622],[35.057545,31.292671],[35.072522,31.296264],[35.095138,31.302315],[35.10666,31.317756],[35.134964,31.355689],[35.210667,31.3883],[35.211782,31.448801],[35.192299,31.491042],[35.188179,31.555134],[35.179253,31.5993],[35.202599,31.615966],[35.201826,31.655427],[35.215387,31.676612],[35.239677,31.699545],[35.251865,31.727583],[35.263796,31.741234],[35.280189,31.766851],[35.278044,31.805883],[35.295811,31.851242],[35.298193,31.868439],[35.301132,31.889656],[35.314693,31.900149],[35.314264,31.921497],[35.3298,31.937523],[35.339756,31.955075],[35.349541,31.982963],[35.372629,32.001307],[35.383358,32.039112],[35.374389,32.04195],[35.360355,32.043587],[35.341473,32.042423],[35.311346,32.060537],[35.303793,32.074938],[35.268516,32.086065],[35.258045,32.093991],[35.243025,32.095373],[35.214847,32.08238],[35.210066,32.080175],[35.183716,32.064247],[35.143032,32.056391],[35.111275,32.063519],[35.078144,32.059155],[35.075569,32.04446],[35.04261,32.046351]]]]}},
{"type":"Feature","properties":{"id":"17","name_he":"מדבר יהודה","name_en":"Judean Desert","label":[35.28944,31.56915]},"geometry":{"type":"MultiPolygon","coordinates":[[[[35.383358,32.039112],[35.372629,32.001307],[35.349541,31.982963],[35.339756,31.955075],[35.3298,31.937523],[35.314264,31.921497],[35.314693,31.900149],[35.301132,31.889656],[35.298193,31.868439],[35.295811,31.851242],[35.278044,31.805883],[35.280189,31.766851],[35.263796,31.741234],[35.251865,31.727583],[35.239677,31.699545],[35.215387,31.676612],[35.201826,31.655427],[35.202599,31.615966],[35.179253,31.5993],[35.188179,31.555134],[35.192299,31.491042],[35.211782,31.448801],[35.210667,31.3883],[35.134964,31.355689],[35.10666,31.317756],[35.095138,31.302315],[35.072522,31.296264],[35.09059,31.286253],[35.107842,31.283319],[35.118484,31.287646],[35.132475,31.288087],[35.15988,31.267126],[35.161057,31.266226],[35.188007,31.247736],[35.200281,31.23739],[35.235086,31.235995],[35.277357,31.251038],[35.297699,31.263732],[35.332632,31.274003],[35.3616,31.287316],[35.364046,31.289847],[35.363617,31.291864],[35.360527,31.296044],[35.362115,31.299272],[35.361085,31.303818],[35.361257,31.311298],[35.354691,31.311115],[35.358682,31.315478],[35.356407,31.320134],[35.353231,31.320868],[35.349798,31.328309],[35.346065,31.330875],[35.344863,31.334175],[35.348039,31.336411],[35.347266,31.351035],[35.348301,31.355453],[35.349841,31.362029],[35.352244,31.365254],[35.356622,31.376833],[35.356836,31.379251],[35.354261,31.380899],[35.354819,31.383427],[35.358982,31.382951],[35.360184,31.391304],[35.362759,31.397202],[35.364323,31.399515],[35.368853,31.406213],[35.365419,31.412513],[35.366664,31.415955],[35.370913,31.411707],[35.372157,31.411853],[35.372415,31.413172],[35.372286,31.42306],[35.373318,31.434559],[35.373788,31.439795],[35.375012,31.444128],[35.377522,31.453012],[35.375762,31.45411],[35.36858,31.454659],[35.364261,31.454989],[35.361643,31.458906],[35.357008,31.459894],[35.361943,31.460736],[35.366321,31.457368],[35.372372,31.456892],[35.378723,31.457625],[35.383744,31.463408],[35.386748,31.465678],[35.386276,31.469265],[35.38456,31.471095],[35.387006,31.47234],[35.39237,31.472706],[35.394216,31.475963],[35.393872,31.481746],[35.391212,31.483503],[35.394774,31.486723],[35.393786,31.493164],[35.389538,31.502751],[35.388508,31.507874],[35.388508,31.511203],[35.383358,31.513142],[35.389152,31.514313],[35.390139,31.51552],[35.387564,31.519362],[35.389409,31.521044],[35.388937,31.525873],[35.389924,31.527154],[35.390696,31.530044],[35.390396,31.534177],[35.387178,31.536189],[35.389967,31.538347],[35.389709,31.540541],[35.390654,31.544345],[35.389323,31.547125],[35.392113,31.548149],[35.393572,31.551477],[35.392885,31.553598],[35.393357,31.558462],[35.395117,31.562374],[35.395417,31.565373],[35.391941,31.566945],[35.397177,31.570784],[35.397692,31.573344],[35.391726,31.575318],[35.391383,31.578791],[35.398121,31.579596],[35.399923,31.585445],[35.397391,31.59367],[35.397992,31.596595],[35.400267,31.603905],[35.402541,31.609022],[35.40267,31.611105],[35.405459,31.613517],[35.405932,31.621082],[35.408034,31.626235],[35.410309,31.629889],[35.408635,31.631789],[35.41121,31.635772],[35.410008,31.63895],[35.411668,31.64166],[35.417402,31.651021],[35.419922,31.655135],[35.422668,31.658532],[35.423312,31.661345],[35.425072,31.663171],[35.42593,31.668139],[35.427775,31.672412],[35.430779,31.677197],[35.432711,31.679972],[35.433955,31.683223],[35.437045,31.684939],[35.439062,31.687313],[35.440221,31.690818],[35.442109,31.692863],[35.443697,31.693192],[35.446444,31.696807],[35.446469,31.698267],[35.446522,31.701336],[35.446615,31.706738],[35.447602,31.710133],[35.446873,31.715865],[35.445199,31.718713],[35.452795,31.73554],[35.453789,31.739375],[35.453911,31.739847],[35.453956,31.743167],[35.453997,31.746124],[35.455971,31.749591],[35.45537,31.757291],[35.458245,31.760758],[35.455928,31.770062],[35.450606,31.775096],[35.450821,31.780824],[35.447645,31.782101],[35.449877,31.788084],[35.448954,31.790668],[35.446477,31.797599],[35.445328,31.800814],[35.44198,31.808509],[35.439062,31.819304],[35.438444,31.823818],[35.437903,31.827763],[35.436487,31.829331],[35.436444,31.840998],[35.433569,31.850841],[35.430136,31.851279],[35.435114,31.854523],[35.436788,31.871544],[35.438376,31.880182],[35.444384,31.882441],[35.453138,31.886267],[35.460176,31.892972],[35.462022,31.899093],[35.463009,31.915888],[35.458245,31.922517],[35.454469,31.924885],[35.459404,31.930712],[35.464082,31.929693],[35.465927,31.936649],[35.463138,31.940182],[35.456915,31.943714],[35.45155,31.948084],[35.457988,31.948521],[35.460863,31.951944],[35.461464,31.958025],[35.463953,31.964178],[35.466442,31.965962],[35.4667,31.96862],[35.452709,31.970294],[35.4458,31.974808],[35.440006,31.98238],[35.437002,31.991298],[35.432239,32.00229],[35.429964,32.012406],[35.434599,32.019611],[35.434685,32.02456],[35.433054,32.031436],[35.430994,32.035001],[35.417733,32.034237],[35.402455,32.038894],[35.383358,32.039112]]]]}},
{"type":"Feature","properties":{"id":"18","name_he":"בקעת ים המלח","name_en":"Dead Sea Valley","label":[35.49015,31.84836]},"geometry":{"type":"MultiPolygon","coordinates":[[[[35.524145,32.025069],[35.471334,32.028162],[35.430994,32.035001],[35.433054,32.031436],[35.434685,32.02456],[35.434599,32.019611],[35.429964,32.012406],[35.432239,32.00229],[35.437002,31.991298],[35.440006,31.98238],[35.4458,31.974808],[35.452709,31.970294],[35.4667,31.96862],[35.466442,31.965962],[35.463953,31.964178],[35.461464,31.958025],[35.460863,31.951944],[35.457988,31.948521],[35.45155,31.948084],[35.456915,31.943714],[35.463138,31.940182],[35.465927,31.936649],[35.464082,31.929693],[35.459404,31.930712],[35.454469,31.924885],[35.458245,31.922517],[35.463009,31.915888],[35.462022,31.899093],[35.460176,31.892972],[35.453138,31.886267],[35.444384,31.882441],[35.438376,31.880182],[35.436788,31.871544],[35.435114,31.854523],[35.430136,31.851279],[35.433569,31.850841],[35.436444,31.840998],[35.436487,31.829331],[35.437903,31.827763],[35.438444,31.823818],[35.439062,31.819304],[35.44198,31.808509],[35.445328,31.800814],[35.446477,31.797599],[35.448954,31.790668],[35.449877,31.788084],[35.447645,31.782101],[35.450821,31.780824],[35.450606,31.775096],[35.455928,31.770062],[35.458245,31.760758],[35.45537,31.757291],[35.455971,31.749591],[35.453997,31.746124],[35.453956,31.743167],[35.453911,31.739847],[35.453789,31.739375],[35.452795,31.73554],[35.445199,31.718713],[35.446873,31.715865],[35.447602,31.710133],[35.446615,31.706738],[35.446522,31.701336],[35.446469,31.698267],[35.446444,31.696807],[35.443697,31.693192],[35.442109,31.692863],[35.440221,31.690818],[35.439062,31.687313],[35.437045,31.684939],[35.433955,31.683223],[35.432711,31.679972],[35.430779,31.677197],[35.427775,31.672412],[35.42593,31.668139],[35.425072,31.663171],[35.423312,31.661345],[35.422668,31.658532],[35.419922,31.655135],[35.417402,31.651021],[35.411668,31.64166],[35.410008,31.63895],[35.41121,31.635772],[35.408635,31.631789],[35.410309,31.629889],[35.408034,31.626235],[35.405932,31.621082],[35.405459,31.613517],[35.40267,31.611105],[35.402541,31.609022],[35.400267,31.603905],[35.397992,31.596595],[35.397391,31.59367],[35.399923,31.585445],[35.398121,31.579596],[35.391383,31.578791],[35.391726,31.575318],[35.397692,31.573344],[35.397177,31.570784],[35.391941,31.566945],[35.395417,31.565373],[35.395117,31.562374],[35.393357,31.558462],[35.392885,31.553598],[35.393572,31.551477],[35.392113,31.548149],[35.389323,31.547125],[35.390654,31.544345],[35.389709,31.540541],[35.389967,31.538347],[35.387178,31.536189],[35.390396,31.534177],[35.390696,31.530044],[35.389924,31.527154],[35.388937,31.525873],[35.389409,31.521044],[35.387564,31.519362],[35.390139,31.51552],[35.389152,31.514313],[35.383358,31.513142],[35.388508,31.511203],[35.388508,31.507874],[35.389538,31.502751],[35.393786,31.493164],[35.394774,31.486723],[35.391212,31.483503],[35.393872,31.481746],[35.394216,31.475963],[35.39237,31.472706],[35.387006,31.47234],[35.38456,31.471095],[35.386276,31.469265],[35.386748,31.465678],[35.383744,31.463408],[35.378723,31.457625],[35.372372,31.456892],[35.366321,31.457368],[35.361943,31.460736],[35.357008,31.459894],[35.361643,31.458906],[35.364261,31.454989],[35.36858,31.454659],[35.375762,31.45411],[35.377522,31.453012],[35.375012,31.444128],[35.373788,31.439795],[35.373318,31.434559],[35.372286,31.42306],[35.372415,31.413172],[35.372157,31.411853],[35.370913,31.411707],[35.366664,31.415955],[35.365419,31.412513],[35.368853,31.406213],[35.364323,31.399515],[35.362759,31.397202],[35.360184,31.391304],[35.358982,31.382951],[35.354819,31.383427],[35.354261,31.380899],[35.356836,31.379251],[35.356622,31.376833],[35.352244,31.365254],[35.349841,31.362029],[35.348301,31.355453],[35.347266,31.351035],[35.348039,31.336411],[35.344863,31.334175],[35.346065,31.330875],[35.349798,31.328309],[35.353231,31.320868],[35.356407,31.320134],[35.358682,31.315478],[35.354691,31.311115],[35.361257,31.311298],[35.361085,31.303818],[35.362115,31.299272],[35.360527,31.296044],[35.363617,31.291864],[35.364046,31.289847],[35.3616,31.287316],[35.363488,31.285849],[35.365548,31.286106],[35.366535,31.284309],[35.365892,31.276204],[35.366664,31.270481],[35.367694,31.266813],[35.363102,31.262448],[35.361042,31.262925],[35.356793,31.25966],[35.360484,31.257716],[35.360012,31.253753],[35.35748,31.250745],[35.358424,31.248067],[35.35718,31.242196],[35.346494,31.240068],[35.349283,31.23882],[35.354433,31.234931],[35.351214,31.228766],[35.352759,31.216288],[35.349241,31.214007],[35.348854,31.213756],[35.351944,31.211884],[35.353403,31.209425],[35.354991,31.204763],[35.354433,31.200762],[35.348983,31.198853],[35.346494,31.195953],[35.354304,31.195402],[35.354605,31.188574],[35.352158,31.186261],[35.354648,31.184793],[35.356665,31.18035],[35.354047,31.176605],[35.354991,31.168307],[35.356407,31.160889],[35.345507,31.15953],[35.342889,31.152699],[35.34306,31.148733],[35.350742,31.148402],[35.354133,31.142672],[35.35336,31.139954],[35.342202,31.137089],[35.338898,31.132387],[35.338597,31.126767],[35.339327,31.123681],[35.340271,31.117325],[35.344391,31.106816],[35.345206,31.100092],[35.341945,31.090648],[35.337524,31.085833],[35.340357,31.082893],[35.33937,31.078078],[35.335078,31.077527],[35.337954,31.073851],[35.335422,31.06672],[35.330658,31.06433],[35.328813,31.059772],[35.330873,31.055765],[35.329242,31.053633],[35.330701,31.05264],[35.32774,31.048081],[35.325637,31.04775],[35.322332,31.039256],[35.318298,31.035028],[35.319886,31.034292],[35.320272,31.032601],[35.318942,31.030872],[35.320659,31.029622],[35.320144,31.016493],[35.317226,31.01458],[35.3195,30.999867],[35.31744,30.996703],[35.314436,30.995857],[35.314865,30.992804],[35.315766,30.991332],[35.319371,30.991884],[35.319843,30.990523],[35.321002,30.989235],[35.321946,30.989088],[35.323319,30.987433],[35.32598,30.985887],[35.328856,30.987212],[35.330572,30.987469],[35.338383,30.990449],[35.344005,30.99078],[35.347009,30.993466],[35.354519,30.985593],[35.36057,30.971648],[35.366793,30.96381],[35.378824,30.952819],[35.385261,30.963279],[35.385158,30.994647],[35.391565,31.023947],[35.438488,31.103736],[35.443242,31.132209],[35.436214,31.159546],[35.421331,31.184506],[35.410686,31.204608],[35.401177,31.230291],[35.3957,31.25768],[35.408205,31.282019],[35.422261,31.303],[35.423915,31.324601],[35.416473,31.331835],[35.435077,31.360619],[35.452854,31.400823],[35.456884,31.423509],[35.457128,31.433524],[35.458538,31.491619],[35.458125,31.491929],[35.458745,31.491567],[35.459158,31.491877],[35.459055,31.492808],[35.458745,31.494409],[35.464222,31.568565],[35.480139,31.641119],[35.502479,31.68536],[35.527578,31.735067],[35.55941,31.765349],[35.538326,31.819299],[35.538326,31.826741],[35.549075,31.839195],[35.524684,31.919241],[35.527474,31.927355],[35.533676,31.9303],[35.5406,31.932006],[35.545148,31.936605],[35.545871,31.944563],[35.53998,31.955622],[35.538326,31.963942],[35.537706,31.977584],[35.535536,31.988229],[35.524684,32.011691],[35.524145,32.025069]]]]}},
{"type":"Feature","properties":{"id":"19","name_he":"צפון הנגב","name_en":"Northern Negev","label":[34.67832,31.18322]},"geometry":{"type":"MultiPolygon","coordinates":[[[[34.790611,31.580656],[34.780226,31.571369],[34.769068,31.558754],[34.740915,31.551038],[34.709029,31.545552],[34.668732,31.485479],[34.61277,31.46264],[34.529858,31.414307],[34.508523,31.382203],[34.506683,31.379434],[34.454498,31.317201],[34.443469,31.298318],[34.464283,31.281962],[34.449005,31.250965],[34.429436,31.217499],[34.294081,31.145868],[34.332361,31.039992],[34.340086,31.023002],[34.347725,31.003803],[34.363518,30.962302],[34.38446,30.908079],[34.394503,30.882338],[34.403343,30.858911],[34.41072,30.859995],[34.508524,30.874369],[34.522648,30.876445],[34.619636,30.895007],[34.798679,31.002773],[34.87112,31.024694],[34.981499,31.120264],[35.106983,31.204433],[35.139617,31.221874],[35.188007,31.247736],[35.161057,31.266226],[35.15988,31.267126],[35.132475,31.288087],[35.118484,31.287646],[35.107842,31.283319],[35.09059,31.286253],[35.072522,31.296264],[35.057545,31.292671],[35.036173,31.282622],[35.011883,31.240252],[34.984589,31.233793],[34.954548,31.26065],[34.916439,31.296741],[34.868374,31.337217],[34.834986,31.341689],[34.835844,31.372985],[34.844513,31.386615],[34.853354,31.398777],[34.849405,31.417457],[34.791384,31.426686],[34.786234,31.451071],[34.7931,31.480136],[34.798937,31.50941],[34.795873,31.5322],[34.79516,31.537505],[34.790611,31.580656]]]]}},
{"type":"Feature","properties":{"id":"20","name_he":"מרכז הנגב","name_en":"Central Negev","label":[34.73696,30.63082]},"geometry":{"type":"MultiPolygon","coordinates":[[[[34.508524,30.874369],[34.41072,30.859995],[34.403343,30.858911],[34.442804,30.782291],[34.496848,30.679593],[34.50199,30.659744],[34.508523,30.633714],[34.518882,30.592411],[34.516708,30.546348],[34.518452,30.532619],[34.557548,30.494799],[34.541771,30.442061],[34.543428,30.413026],[34.611442,30.371069],[34.619599,30.348677],[34.628186,30.325216],[34.638796,30.298254],[34.647569,30.274146],[34.659666,30.242596],[34.670041,30.215334],[34.681349,30.185125],[34.707699,30.19885],[34.716289,30.208959],[34.737825,30.234302],[34.758081,30.262922],[34.78426,30.28931],[34.794474,30.301612],[34.801598,30.318803],[34.823313,30.341769],[34.823141,30.347695],[34.811726,30.368506],[34.801683,30.382131],[34.789066,30.388869],[34.748211,30.401306],[34.743748,30.418628],[34.756107,30.432394],[34.8143,30.450745],[34.815872,30.451275],[34.834738,30.457633],[34.89069,30.476491],[34.958496,30.493207],[34.983387,30.509329],[34.972916,30.532989],[34.981822,30.543292],[35.006905,30.572312],[35.052566,30.579701],[35.069733,30.610436],[35.061665,30.639389],[35.089825,30.652957],[35.089832,30.65296],[35.095174,30.655534],[35.095997,30.65593],[35.122948,30.670031],[35.118227,30.680144],[35.085783,30.701106],[35.06218,30.712618],[35.019951,30.722358],[34.974976,30.726785],[34.947166,30.744786],[34.896698,30.764554],[34.854813,30.799064],[34.844513,30.825012],[34.815674,30.837099],[34.81533,30.8483],[34.839363,30.854785],[34.882278,30.852721],[34.893265,30.855669],[34.912148,30.868931],[34.929657,30.870109],[34.969854,30.863077],[35.002098,30.857437],[35.020637,30.83592],[35.034714,30.840342],[35.04673,30.853606],[35.058832,30.863405],[35.087671,30.87755],[35.105524,30.892208],[35.129986,30.902446],[35.14492,30.910399],[35.162773,30.919236],[35.171099,30.918794],[35.182686,30.918205],[35.19453,30.922623],[35.212403,30.938876],[35.21307,30.939483],[35.214847,30.941028],[35.224407,30.949339],[35.232038,30.955972],[35.237102,30.962081],[35.245428,30.96841],[35.256672,30.979669],[35.266714,30.986292],[35.268259,30.990707],[35.274482,31.004539],[35.29021,31.016879],[35.292721,31.022818],[35.306411,31.034255],[35.312655,31.034844],[35.315348,31.035782],[35.318298,31.035028],[35.322332,31.039256],[35.325637,31.04775],[35.32774,31.048081],[35.330701,31.05264],[35.329242,31.053633],[35.330873,31.055765],[35.328813,31.059772],[35.330658,31.06433],[35.335422,31.06672],[35.337954,31.073851],[35.335078,31.077527],[35.33937,31.078078],[35.340357,31.082893],[35.337524,31.085833],[35.341945,31.090648],[35.345206,31.100092],[35.344391,31.106816],[35.340271,31.117325],[35.339327,31.123681],[35.338597,31.126767],[35.338898,31.132387],[35.342202,31.137089],[35.35336,31.139954],[35.354133,31.142672],[35.350742,31.148402],[35.34306,31.148733],[35.342889,31.152699],[35.345507,31.15953],[35.356407,31.160889],[35.354991,31.168307],[35.354047,31.176605],[35.356665,31.18035],[35.354648,31.184793],[35.352158,31.186261],[35.354605,31.188574],[35.354304,31.195402],[35.346494,31.195953],[35.348983,31.198853],[35.354433,31.200762],[35.354991,31.204763],[35.353403,31.209425],[35.351944,31.211884],[35.348854,31.213756],[35.349241,31.214007],[35.352759,31.216288],[35.351214,31.228766],[35.354433,31.234931],[35.349283,31.23882],[35.346494,31.240068],[35.35718,31.242196],[35.358424,31.248067],[35.35748,31.250745],[35.360012,31.253753],[35.360484,31.257716],[35.356793,31.25966],[35.361042,31.262925],[35.363102,31.262448],[35.367694,31.266813],[35.366664,31.270481],[35.365892,31.276204],[35.366535,31.284309],[35.365548,31.286106],[35.363488,31.285849],[35.3616,31.287316],[35.332632,31.274003],[35.297699,31.263732],[35.277357,31.251038],[35.235086,31.235995],[35.200281,31.23739],[35.188007,31.247736],[35.139617,31.221874],[35.106983,31.204433],[34.981499,31.120264],[34.87112,31.024694],[34.798679,31.002773],[34.619636,30.895007],[34.522648,30.876445],[34.508524,30.874369]]]]}},
{"type":"Feature","properties":{"id":"21","name_he":"דרום הנגב","name_en":"Southern Negev","label":[34.91414,30.08166]},"geometry":{"type":"MultiPolygon","coordinates":[[[[35.178843,30.542059],[35.16449,30.549105],[35.169811,30.577632],[35.175476,30.593149],[35.176163,30.619448],[35.177689,30.625844],[35.187836,30.668333],[35.188175,30.669606],[35.196934,30.702435],[35.174964,30.714021],[35.160885,30.733278],[35.159852,30.764697],[35.178738,30.793166],[35.18981,30.802013],[35.214768,30.820309],[35.214847,30.820367],[35.223198,30.826486],[35.224571,30.837983],[35.28019,30.87324],[35.276156,30.890772],[35.27813,30.907969],[35.279503,30.91305],[35.281589,30.914847],[35.289588,30.921739],[35.287786,30.930354],[35.29448,30.944047],[35.29388,30.94666],[35.297227,30.955125],[35.298386,30.968778],[35.301948,30.972862],[35.305982,30.984158],[35.313277,30.989088],[35.315766,30.991332],[35.314865,30.992804],[35.314436,30.995857],[35.31744,30.996703],[35.3195,30.999867],[35.317226,31.01458],[35.320144,31.016493],[35.320659,31.029622],[35.318942,31.030872],[35.320272,31.032601],[35.319886,31.034292],[35.318298,31.035028],[35.315348,31.035782],[35.312655,31.034844],[35.306411,31.034255],[35.292721,31.022818],[35.29021,31.016879],[35.274482,31.004539],[35.268259,30.990707],[35.266714,30.986292],[35.256672,30.979669],[35.245428,30.96841],[35.237102,30.962081],[35.232038,30.955972],[35.224407,30.949339],[35.214847,30.941028],[35.21307,30.939483],[35.212403,30.938876],[35.19453,30.922623],[35.182686,30.918205],[35.171099,30.918794],[35.162773,30.919236],[35.14492,30.910399],[35.129986,30.902446],[35.105524,30.892208],[35.087671,30.87755],[35.058832,30.863405],[35.04673,30.853606],[35.034714,30.840342],[35.020637,30.83592],[35.002098,30.857437],[34.969854,30.863077],[34.929657,30.870109],[34.912148,30.868931],[34.893265,30.855669],[34.882278,30.852721],[34.839363,30.854785],[34.81533,30.8483],[34.815674,30.837099],[34.844513,30.825012],[34.854813,30.799064],[34.896698,30.764554],[34.947166,30.744786],[34.974976,30.726785],[35.019951,30.722358],[35.06218,30.712618],[35.085783,30.701106],[35.118227,30.680144],[35.122948,30.670031],[35.095997,30.65593],[35.095174,30.655534],[35.089832,30.65296],[35.089825,30.652957],[35.061665,30.639389],[35.069733,30.610436],[35.052566,30.579701],[35.006905,30.572312],[34.981822,30.543292],[34.972916,30.532989],[34.983387,30.509329],[34.958496,30.493207],[34.89069,30.476491],[34.834738,30.457633],[34.815872,30.451275],[34.8143,30.450745],[34.756107,30.432394],[34.743748,30.418628],[34.748211,30.401306],[34.789066,30.388869],[34.801683,30.382131],[34.811726,30.368506],[34.823141,30.347695],[34.823313,30.341769],[34.801598,30.318803],[34.794474,30.301612],[34.78426,30.28931],[34.758081,30.262922],[34.737825,30.234302],[34.716289,30.208959],[34.707699,30.19885],[34.681349,30.185125],[34.704094,30.125159],[34.704394,30.124327],[34.707012,30.117067],[34.738426,30.043093],[34.748125,30.01976],[34.758425,29.988542],[34.775419,29.942068],[34.782801,29.919084],[34.789753,29.903237],[34.795418,29.887611],[34.813957,29.84258],[34.821443,29.82064],[34.845078,29.815215],[34.873631,29.810177],[34.912262,29.83957],[34.949213,29.871482],[34.983645,29.883239],[35.016397,29.87904],[35.024399,29.872224],[35.053339,29.887834],[35.053602,29.889688],[35.054118,29.923394],[35.059444,29.948036],[35.050764,29.949283],[35.052223,29.963709],[35.057545,29.975606],[35.074535,29.991689],[35.074686,29.994604],[35.086261,30.034034],[35.125198,30.084726],[35.127583,30.127312],[35.080891,30.143197],[35.046558,30.198108],[35.073681,30.22392],[35.076084,30.243201],[35.098208,30.270051],[35.11591,30.291534],[35.119171,30.305169],[35.097713,30.340436],[35.074451,30.334735],[35.068314,30.326622],[35.036259,30.3231],[35.036087,30.346288],[35.065181,30.351772],[35.097027,30.362211],[35.11694,30.410486],[35.143561,30.438515],[35.151791,30.457793],[35.153332,30.466726],[35.145435,30.483296],[35.160027,30.495278],[35.168925,30.513956],[35.178843,30.542059]]]]}},
{"type":"Feature","properties":{"id":"22","name_he":"הערבה","name_en":"Arava Valley","label":[35.2162,30.7523]},"geometry":{"type":"MultiPolygon","coordinates":[[[[35.378824,30.952819],[35.366793,30.96381],[35.36057,30.971648],[35.354519,30.985593],[35.347009,30.993466],[35.344005,30.99078],[35.338383,30.990449],[35.330572,30.987469],[35.328856,30.987212],[35.32598,30.985887],[35.323319,30.987433],[35.321946,30.989088],[35.321002,30.989235],[35.319843,30.990523],[35.319371,30.991884],[35.315766,30.991332],[35.313277,30.989088],[35.305982,30.984158],[35.301948,30.972862],[35.298386,30.968778],[35.297227,30.955125],[35.29388,30.94666],[35.29448,30.944047],[35.287786,30.930354],[35.289588,30.921739],[35.281589,30.914847],[35.279503,30.91305],[35.27813,30.907969],[35.276156,30.890772],[35.28019,30.87324],[35.224571,30.837983],[35.223198,30.826486],[35.214847,30.820367],[35.214768,30.820309],[35.18981,30.802013],[35.178738,30.793166],[35.159852,30.764697],[35.160885,30.733278],[35.174964,30.714021],[35.196934,30.702435],[35.188175,30.669606],[35.187836,30.668333],[35.177689,30.625844],[35.176163,30.619448],[35.175476,30.593149],[35.169811,30.577632],[35.16449,30.549105],[35.178843,30.542059],[35.205324,30.617099],[35.263821,30.71978],[35.263882,30.719967],[35.271573,30.743706],[35.27612,30.768976],[35.279531,30.780241],[35.286145,30.792333],[35.293897,30.800188],[35.310847,30.813314],[35.316635,30.822823],[35.320045,30.84494],[35.319528,30.867316],[35.322216,30.88995],[35.334928,30.912585],[35.34711,30.92271],[35.374099,30.945141],[35.378824,30.952819]]],[[[35.168925,30.513956],[35.160027,30.495278],[35.145435,30.483296],[35.153332,30.466726],[35.151791,30.457793],[35.157368,30.470854],[35.162122,30.494677],[35.168925,30.513956]]],[[[35.143561,30.438515],[35.11694,30.410486],[35.097027,30.362211],[35.065181,30.351772],[35.036087,30.346288],[35.036259,30.3231],[35.068314,30.326622],[35.074451,30.334735],[35.097713,30.340436],[35.119171,30.305169],[35.11591,30.291534],[35.098208,30.270051],[35.076084,30.243201],[35.073681,30.22392],[35.046558,30.198108],[35.080891,30.143197],[35.127583,30.127312],[35.125198,30.084726],[35.129049,30.089741],[35.145276,30.123382],[35.145276,30.154905],[35.124812,30.21609],[35.125225,30.244667],[35.132356,30.261875],[35.141762,30.313965],[35.147756,30.32647],[35.154474,30.336754],[35.159952,30.347503],[35.162122,30.361404],[35.159332,30.375615],[35.144965,30.395872],[35.140005,30.406155],[35.140005,30.430185],[35.143561,30.438515]]],[[[35.074535,29.991689],[35.057545,29.975606],[35.052223,29.963709],[35.050764,29.949283],[35.059444,29.948036],[35.061456,29.957346],[35.065384,29.965976],[35.070345,29.973727],[35.074065,29.982564],[35.074535,29.991689]]],[[[35.053602,29.889688],[35.053339,29.887834],[35.024399,29.872224],[35.023813,29.871908],[35.011969,29.847344],[34.984331,29.817934],[34.967852,29.807582],[34.931717,29.792388],[34.92382,29.783152],[34.936523,29.772945],[34.941244,29.766464],[34.939785,29.759236],[34.935837,29.753275],[34.946737,29.744035],[34.956779,29.738595],[34.961929,29.72734],[34.977465,29.725253],[34.980297,29.715936],[34.972744,29.691781],[34.97592,29.681267],[34.972143,29.677464],[34.969568,29.665606],[34.967422,29.660833],[34.956522,29.661579],[34.955234,29.651584],[34.961071,29.648078],[34.946737,29.632189],[34.93412,29.628981],[34.936266,29.5907],[34.946136,29.586445],[34.937725,29.571442],[34.930687,29.56099],[34.925537,29.547625],[34.920301,29.544713],[34.922018,29.54083],[34.916611,29.53508],[34.915152,29.526417],[34.928961,29.51934],[34.931635,29.52226],[34.931974,29.523056],[34.933433,29.524476],[34.933684,29.524497],[34.942224,29.533823],[34.942188,29.533885],[34.943905,29.535902],[34.948711,29.5421],[34.948771,29.542076],[34.951345,29.54564],[34.955577,29.558987],[34.95986,29.586206],[34.966992,29.608116],[34.980324,29.627004],[34.989833,29.651964],[34.995104,29.708162],[35.002545,29.733096],[35.048951,29.842314],[35.053188,29.862623],[35.053602,29.889688]]]]}},
{"type":"Feature","properties":{"id":"23","name_he":"הרי אילת","name_en":"Eilat Mountains","label":[34.91509,29.69748]},"geometry":{"type":"MultiPolygon","coordinates":[[[[34.928961,29.51934],[34.915152,29.526417],[34.916611,29.53508],[34.922018,29.54083],[34.920301,29.544713],[34.925537,29.547625],[34.930687,29.56099],[34.937725,29.571442],[34.946136,29.586445],[34.936266,29.5907],[34.93412,29.628981],[34.946737,29.632189],[34.961071,29.648078],[34.955234,29.651584],[34.956522,29.661579],[34.967422,29.660833],[34.969568,29.665606],[34.972143,29.677464],[34.97592,29.681267],[34.972744,29.691781],[34.980297,29.715936],[34.977465,29.725253],[34.961929,29.72734],[34.956779,29.738595],[34.946737,29.744035],[34.935837,29.753275],[34.939785,29.759236],[34.941244,29.766464],[34.936523,29.772945],[34.92382,29.783152],[34.931717,29.792388],[34.967852,29.807582],[34.984331,29.817934],[35.011969,29.847344],[35.023813,29.871908],[35.024399,29.872224],[35.016397,29.87904],[34.983645,29.883239],[34.949213,29.871482],[34.912262,29.83957],[34.873631,29.810177],[34.845078,29.815215],[34.821443,29.82064],[34.825974,29.807359],[34.848633,29.758864],[34.851637,29.730545],[34.856615,29.687978],[34.878588,29.643677],[34.876957,29.613237],[34.8664,29.597193],[34.87258,29.579354],[34.878502,29.543369],[34.884939,29.527612],[34.895496,29.51245],[34.90365,29.493551],[34.902678,29.491191],[34.904544,29.492384],[34.907084,29.495568],[34.909058,29.496166],[34.91086,29.497585],[34.912549,29.497841],[34.913305,29.498519],[34.913343,29.498553],[34.914505,29.499575],[34.915829,29.500786],[34.915945,29.500889],[34.916353,29.501256],[34.91977,29.507392],[34.925994,29.51568],[34.925966,29.515737],[34.926567,29.517081],[34.927416,29.517574],[34.927745,29.518012],[34.928961,29.51934]]]]}}
]}